state_name,jurisdiction_name,location_name,info,address_1,address_2,address_3,contact_fax,contact_phone,latitude,longitude,is_early_dropoff_location,is_early_voting_location,is_elections_office,is_polling_location,scheduletype,is_drop_box,facilitytype_name,tempstring,timezone,continuous_open,continuous_close,schedule_description,is_handicap_accessible,is_staffed_location
Ohio,Belmont County,Belmont County Board of Elections,Outdoor drop box,52180 National Road,PO Box 994 ,St. Clairsville OH 43950,(740) 526-0512,(740) 526-0188,40.07161,-80.846085,Y,N,N,NULL,continuous,Y,Government,ohio-boe-dropbox,US/Eastern,2020/10/05 08:00,2020/11/03 19:30,NULL,U,U
Ohio,Cuyahoga County,Cuyahoga County Board of Elections,Outdoor drop box,2925 Euclid Ave. ,,Cleveland OH 44115,(216) 443-6633,(216) 443-8683,41.502495,-81.66806,Y,N,N,NULL,continuous,Y,Government,ohio-boe-dropbox,US/Eastern,2020/10/05 08:00,2020/11/03 19:30,NULL,U,U
Ohio,Darke County,Darke County Board of Elections,Outdoor drop box,300 Garst Ave.,Suite 7 ,Greenville OH 45331,(937) 548-2820,(937) 548-1835,40.10756,-84.634674,Y,N,N,NULL,continuous,Y,Government,ohio-boe-dropbox,US/Eastern,2020/10/05 08:00,2020/11/03 19:30,NULL,U,U
Ohio,Clark County,Clark County Board of Elections,Outdoor drop box,3130 E. Main St. ,,Springfield OH 45501,(937) 328-2603,(937) 521-2120,39.923374,-83.75879,Y,N,N,NULL,continuous,Y,Government,ohio-boe-dropbox,US/Eastern,2020/10/05 08:00,2020/11/03 19:30,NULL,U,U
Ohio,Clermont County,Clermont County Board of Elections,Outdoor drop box,76 S. Riverside Dr. ,,Batavia OH 45103,(513) 732-7330,(513) 732-7275,39.07772,-84.17902,Y,N,N,NULL,continuous,Y,Government,ohio-boe-dropbox,US/Eastern,2020/10/05 08:00,2020/11/03 19:30,NULL,U,U
Ohio,Fayette County,Fayette County Board of Elections,Outdoor drop box,135 S. Main St.  ,,Washington Court House OH 43160,(740) 333-3574,(740) 335-1190,39.535385,-83.43956,Y,N,N,NULL,continuous,Y,Government,ohio-boe-dropbox,US/Eastern,2020/10/05 08:00,2020/11/03 19:30,NULL,U,U
Ohio,Fulton County,Fulton County Board of Elections,Outdoor drop box,135 Court House Plaza ,,Wauseon OH 43567,(419) 337-2363,(419) 335-6841,41.545467,-84.14076,Y,N,N,NULL,continuous,Y,Government,ohio-boe-dropbox,US/Eastern,2020/10/05 08:00,2020/11/03 19:30,NULL,U,U
Ohio,Geauga County,Geauga County Board of Elections,Outdoor drop box,470 Center St,Building 6A,Chardon OH 44024,(440) 285-0959,(440) 279-2030,41.589687,-81.22336,Y,N,N,NULL,continuous,Y,Government,ohio-boe-dropbox,US/Eastern,2020/10/05 08:00,2020/11/03 19:30,NULL,U,U
Ohio,Guernsey County,Guernsey County Board of Elections,Outdoor drop box,627 Wheeling Ave.,Suite 101 ,Cambridge OH 43725,(740) 432-6784,(740) 432-2680,40.024845,-81.59291,Y,N,N,NULL,continuous,Y,Government,ohio-boe-dropbox,US/Eastern,2020/10/05 08:00,2020/11/03 19:30,NULL,U,U
Ohio,Hancock County,Hancock County Board of Elections,Outdoor drop box,201 E. Lincoln St.,Rear,Findlay OH 45840,(419) 424-7293,(419) 422-3245,41.03436,-83.64837,Y,N,N,NULL,continuous,Y,Government,ohio-boe-dropbox,US/Eastern,2020/10/05 08:00,2020/11/03 19:30,NULL,U,U
Ohio,Crawford County,Crawford County Board of Elections,Outdoor drop box,112 East Mansfield St.,Suite A ,Bucyrus OH 44820,(419) 562-2235,(419) 562-8721,40.80868,-82.97481,Y,N,N,NULL,continuous,Y,Government,ohio-boe-dropbox,US/Eastern,2020/10/05 08:00,2020/11/03 19:30,NULL,U,U
Ohio,Harrison County,Harrison County Board of Elections,Outdoor drop box,538 N. Main St.,Suite B,Cadiz OH 43907,(740) 942-8531,(740) 942-8866,40.28408,-80.98839,Y,N,N,NULL,continuous,Y,Government,ohio-boe-dropbox,US/Eastern,2020/10/05 08:00,2020/11/03 19:30,NULL,U,U
Ohio,Henry County,Henry County Board of Elections,Outdoor drop box,1827 Oakwood Ave. ,,Napoleon OH 43545,(419) 592-7957,(419) 592-7956,41.411358,-84.11924,Y,N,N,NULL,continuous,Y,Government,ohio-boe-dropbox,US/Eastern,2020/10/05 08:00,2020/11/03 19:30,NULL,U,U
Ohio,Hocking County,Hocking County Board of Elections,Outdoor drop box,93 W. Hunter St. ,,Logan OH 43138,(740) 380-3712,(740) 380-8683,39.541286,-82.4104,Y,N,N,NULL,continuous,Y,Government,ohio-boe-dropbox,US/Eastern,2020/10/05 08:00,2020/11/03 19:30,NULL,U,U
Ohio,Jackson County,Jackson County Board of Elections,Outdoor drop box,275 Portsmouth St.,Suite 2 ,Jackson OH 45640,(740) 288-3631,(740) 286-2905,39.05256,-82.638466,Y,N,N,NULL,continuous,Y,Government,ohio-boe-dropbox,US/Eastern,2020/10/05 08:00,2020/11/03 19:30,NULL,U,U
Ohio,Knox County,Knox County Board of Elections,Outdoor drop box,104 East Sugar St. ,,Mt. Vernon OH 43050,(740) 393-6717,(740) 393-6716,40.395332,-82.482574,Y,N,N,NULL,continuous,Y,Government,ohio-boe-dropbox,US/Eastern,2020/10/05 08:00,2020/11/03 19:30,NULL,U,U
Ohio,Lake County,Lake County Board of Elections,Outdoor drop box,105 Main St.,Suite 107 ,Painesville OH 44077,(440) 350-2670,(440) 350-2700,41.725304,-81.24284,Y,N,N,NULL,continuous,Y,Government,ohio-boe-dropbox,US/Eastern,2020/10/05 08:00,2020/11/03 19:30,NULL,U,U
Ohio,Logan County,Logan County Board of Elections,Outdoor drop box,225 S. Main St. ,,Bellefontaine OH 44311,(937) 599-7270,(937) 599-7255,40.358932,-83.75996,Y,N,N,NULL,continuous,Y,Government,ohio-boe-dropbox,US/Eastern,2020/10/05 08:00,2020/11/03 19:30,NULL,U,U
Ohio,Marion County,Marion County Board of Elections,Outdoor drop box,222 W. Center St. ,,Marion OH 43302,(740) 223-4099,(740) 223-4090,40.58852,-83.132324,Y,N,N,NULL,continuous,Y,Government,ohio-boe-dropbox,US/Eastern,2020/10/05 08:00,2020/11/03 19:30,NULL,U,U
Ohio,Williams County,Williams County Board of Elections,Outdoor drop box,1425 E. High St.,Suite 104 ,Bryan OH 43506,(419) 636-2975,(419) 636-1854,41.47453,-84.57282,Y,N,N,NULL,continuous,Y,Government,ohio-boe-dropbox,US/Eastern,2020/10/05 08:00,2020/11/03 19:30,NULL,U,U
Ohio,Wood County,Wood County Board of Elections,Outdoor drop box,1 Court House Sq.  ,,Bowling Green OH 43402,(419) 354-1730,(419) 354-9120,41.375996,-83.647896,Y,N,N,NULL,continuous,Y,Government,ohio-boe-dropbox,US/Eastern,2020/10/05 08:00,2020/11/03 19:30,NULL,U,U
Ohio,Medina County,Medina County Board of Elections,Outdoor drop box,3800 Stonegate Drive,Suite C ,Medina OH 44256,(330) 722-9299,(330) 722-9278,41.16476,-81.859764,Y,N,N,NULL,continuous,Y,Government,ohio-boe-dropbox,US/Eastern,2020/10/05 08:00,2020/11/03 19:30,NULL,U,U
Ohio,Mercer County,Mercer County Board of Elections,Outdoor drop box,101 N. Main St.,Room 107 ,Celina OH 45822,(419) 586-2748,(419) 586-2215,40.54913,-84.57081,Y,N,N,NULL,continuous,Y,Government,ohio-boe-dropbox,US/Eastern,2020/10/05 08:00,2020/11/03 19:30,NULL,U,U
Ohio,Montgomery County,Montgomery County Board of Elections,Outdoor drop box,451 W. Third St.,,Dayton OH 45422,(937) 496-7798,(937) 225-5656,39.758305,-84.199295,Y,N,N,NULL,continuous,Y,Government,ohio-boe-dropbox,US/Eastern,2020/10/05 08:00,2020/11/03 19:30,NULL,U,U
Ohio,Morgan County,Morgan County Board of Elections,Outdoor drop box,155 E. Main St.,Room 157 ,McConnelsville OH 43756,(740) 962-3099,(740) 962-3116,39.64874,-81.851685,Y,N,N,NULL,continuous,Y,Government,ohio-boe-dropbox,US/Eastern,2020/10/05 08:00,2020/11/03 19:30,NULL,U,U
Ohio,Morrow County,Morrow County Board of Elections,Outdoor drop box,619 W. Marion Rd.,Room 146  ,Mt. Gilead OH 43338,(419) 946-9861,(419) 946-4026,40.549297,-82.849495,Y,N,N,NULL,continuous,Y,Government,ohio-boe-dropbox,US/Eastern,2020/10/05 08:00,2020/11/03 19:30,NULL,U,U
Ohio,Muskingum County,Muskingum County Board of Elections,Outdoor drop box,627 Market Street,,Zanesville OH 43701,(740) 455-7178,(740) 455-7120,39.94173,-82.00471,Y,N,N,NULL,continuous,Y,Government,ohio-boe-dropbox,US/Eastern,2020/10/05 08:00,2020/11/03 19:30,NULL,U,U
Ohio,Paulding County,Paulding County Board of Elections,Outdoor drop box,105 E. Perry St. ,,Paulding OH 45879,(419) 399-8250,(419) 399-8230,41.13733,-84.580605,Y,N,N,NULL,continuous,Y,Government,ohio-boe-dropbox,US/Eastern,2020/10/05 08:00,2020/11/03 19:30,NULL,U,U
Ohio,Perry County,Perry County Board of Elections,Outdoor drop box,200 S. Jackson St.   ,,New Lexington OH 43764,(740) 342-4787,(740) 342-2134,39.713554,-82.20585,Y,N,N,NULL,continuous,Y,Government,ohio-boe-dropbox,US/Eastern,2020/10/05 08:00,2020/11/03 19:30,NULL,U,U
Ohio,Madison County,Madison County Board of Elections,Outdoor drop box,1423 State Route 38 SE ,,London OH 43140,(740) 852-7131,(740) 852-9424,39.95767,-83.43384,Y,N,N,NULL,continuous,Y,Government,ohio-boe-dropbox,US/Eastern,2020/10/05 08:00,2020/11/03 19:30,NULL,U,U
Ohio,Mahoning County,Mahoning County Board of Elections,Outdoor drop box,345 Oak Hill Ave. Entrance A ,,Youngstown OH 44502,(330) 783-2801,(330) 783-2474,41.09592,-80.659515,Y,N,N,NULL,continuous,Y,Government,ohio-boe-dropbox,US/Eastern,2020/10/05 08:00,2020/11/03 19:30,NULL,U,U
Ohio,Portage County,Portage County Board of Elections,Outdoor drop box,449 S. Meridian St.,Room 101 ,Ravenna OH 44266,(330) 297-3518,(330) 297-3511,41.15307,-81.24509,Y,N,N,NULL,continuous,Y,Government,ohio-boe-dropbox,US/Eastern,2020/10/05 08:00,2020/11/03 19:30,NULL,U,U
Ohio,Putnam County,Putnam County Board of Elections,Outdoor drop box,575 Ottawa-Glandorf Road,Suite 2 ,Ottawa OH 45875,(419) 538-6993,(419) 538-6850,41.021473,-84.064224,Y,N,N,NULL,continuous,Y,Government,ohio-boe-dropbox,US/Eastern,2020/10/05 08:00,2020/11/03 19:30,NULL,U,U
Ohio,Richland County,Richland County Board of Elections,Outdoor drop box,1495 W. Longview Ave.,Suite 101 ,Mansfield OH 44906,(419) 774-5534,(419) 774-5530,40.776123,-82.56857,Y,N,N,NULL,continuous,Y,Government,ohio-boe-dropbox,US/Eastern,2020/10/05 08:00,2020/11/03 19:30,NULL,U,U
Ohio,Scioto County,Scioto County Board of Elections,Outdoor drop box,602 7th St.,Rm 105 ,Portsmouth OH 45662,(740) 355-8326,(740) 353-4178,38.735718,-83.00044,Y,N,N,NULL,continuous,Y,Government,ohio-boe-dropbox,US/Eastern,2020/10/05 08:00,2020/11/03 19:30,NULL,U,U
Ohio,Seneca County,Seneca County Board of Elections,Outdoor drop box,71 S. Washington St.,Ste. 1101 ,Tiffin OH 44883,(419) 443-7925,(419) 447-4424,41.11563,-83.17672,Y,N,N,NULL,continuous,Y,Government,ohio-boe-dropbox,US/Eastern,2020/10/05 08:00,2020/11/03 19:30,NULL,U,U
Ohio,Shelby County,Shelby County Board of Elections,Outdoor drop box,230 E. Court St. ,,Sidney OH 45365,(937) 498-7326,(937) 498-7207,40.28442,-84.15454,Y,N,N,NULL,continuous,Y,Government,ohio-boe-dropbox,US/Eastern,2020/10/05 08:00,2020/11/03 19:30,NULL,U,U
Ohio,Union County,Union County Board of Elections,Outdoor drop box,835 East Fifth Street,Suite A ,Marysville OH 43040,(937) 642-2823,(937) 642-2836,40.235676,-83.35563,Y,N,N,NULL,continuous,Y,Government,ohio-boe-dropbox,US/Eastern,2020/10/05 08:00,2020/11/03 19:30,NULL,U,U
Ohio,Van Wert County,Van Wert County Board of Elections,Outdoor drop box,1362 East Ervin Road ,,Van Wert OH 45891,(419) 238-7145,(419) 238-4192,40.85912,-84.56174,Y,N,N,NULL,continuous,Y,Government,ohio-boe-dropbox,US/Eastern,2020/10/05 08:00,2020/11/03 19:30,NULL,U,U
Ohio,Wayne County,Wayne County Board of Elections,Outdoor drop box,200 Vanover St.,Suite 1 ,Wooster OH 44691,(330) 287-5686,(330) 287-5480,40.796093,-81.94826,Y,N,N,NULL,continuous,Y,Government,ohio-boe-dropbox,US/Eastern,2020/10/05 08:00,2020/11/03 19:30,NULL,U,U
Ohio,Wyandot County,Wyandot County Board of Elections,Outdoor drop box,350 North Warpole Street,Upper,Sandusky OH 43351,(419) 294-6437,(419) 294-1226,40.831448,-83.29012,Y,N,N,NULL,continuous,Y,Government,ohio-boe-dropbox,US/Eastern,2020/10/05 08:00,2020/11/03 19:30,NULL,U,U
Ohio,Franklin County,Franklin County Board of Elections,Outdoor drop box,1700 Morse Road ,,Columbus OH 43229,(614) 525-3489,(614) 525-3100 ,40.06042,-82.97369,Y,N,N,NULL,continuous,Y,Government,ohio-boe-dropbox,US/Eastern,2020/10/05 08:00,2020/11/03 19:30,NULL,U,U
Ohio,Meigs County,Meigs County Board of Elections,Outdoor drop box,113 E. Memorial Dr.,Suite A ,Pomeroy OH 45769,(740) 992-2645,(740) 992-2697,39.037395,-82.045,Y,N,N,NULL,continuous,Y,Government,ohio-boe-dropbox,US/Eastern,2020/10/05 08:00,2020/11/03 19:30,NULL,U,U
Ohio,Trumbull County,Trumbull County Board of Elections,Outdoor drop box,2947 Youngstown Rd. SE,,Warren OH 44484,(330) 369-4160,(330) 369-4050,41.22148,-80.782715,Y,N,N,NULL,continuous,Y,Government,ohio-boe-dropbox,US/Eastern,2020/10/05 08:00,2020/11/03 19:30,NULL,U,U
Ohio,Fayette County,Fayette County Board of Elections,,135 S. Main St.  ,,Washington Court House OH 43160,(740) 333-3574,(740) 335-1190,39.535385,-83.43956,Y,Y,Y,N,hours,N,Government,ohio-boe-offices,US/Eastern,NULL,NULL,NULL,U,U
Ohio,Fulton County,Fulton County Board of Elections,,135 Court House Plaza ,,Wauseon OH 43567,(419) 337-2363,(419) 335-6841,41.545467,-84.14076,Y,Y,Y,N,hours,N,Government,ohio-boe-offices,US/Eastern,NULL,NULL,NULL,U,U
Ohio,Geauga County,Geauga County Board of Elections,,470 Center St,Building 6A,Chardon OH 44024,(440) 285-0959,(440) 279-2030,41.589687,-81.22336,Y,Y,Y,N,hours,N,Government,ohio-boe-offices,US/Eastern,NULL,NULL,NULL,U,U
Ohio,Guernsey County,Guernsey County Board of Elections,,627 Wheeling Ave.,Suite 101 ,Cambridge OH 43725,(740) 432-6784,(740) 432-2680,40.024845,-81.59291,Y,Y,Y,N,hours,N,Government,ohio-boe-offices,US/Eastern,NULL,NULL,NULL,U,U
Ohio,Hancock County,Hancock County Board of Elections,,201 E. Lincoln St.,Rear,Findlay OH 45840,(419) 424-7293,(419) 422-3245,41.03436,-83.64837,Y,Y,Y,N,hours,N,Government,ohio-boe-offices,US/Eastern,NULL,NULL,NULL,U,U
Ohio,Harrison County,Harrison County Board of Elections,,538 N. Main St.,Suite B,Cadiz OH 43907,(740) 942-8531,(740) 942-8866,40.28408,-80.98839,Y,Y,Y,N,hours,N,Government,ohio-boe-offices,US/Eastern,NULL,NULL,NULL,U,U
Ohio,Henry County,Henry County Board of Elections,,1827 Oakwood Ave. ,,Napoleon OH 43545,(419) 592-7957,(419) 592-7956,41.411358,-84.11924,Y,Y,Y,N,hours,N,Government,ohio-boe-offices,US/Eastern,NULL,NULL,NULL,U,U
Ohio,Hocking County,Hocking County Board of Elections,,93 W. Hunter St. ,,Logan OH 43138,(740) 380-3712,(740) 380-8683,39.541286,-82.4104,Y,Y,Y,N,hours,N,Government,ohio-boe-offices,US/Eastern,NULL,NULL,NULL,U,U
Ohio,Jackson County,Jackson County Board of Elections,,275 Portsmouth St.,Suite 2 ,Jackson OH 45640,(740) 288-3631,(740) 286-2905,39.05256,-82.638466,Y,Y,Y,N,hours,N,Government,ohio-boe-offices,US/Eastern,NULL,NULL,NULL,U,U
Ohio,Knox County,Knox County Board of Elections,,104 East Sugar St. ,,Mt. Vernon OH 43050,(740) 393-6717,(740) 393-6716,40.395332,-82.482574,Y,Y,Y,N,hours,N,Government,ohio-boe-offices,US/Eastern,NULL,NULL,NULL,U,U
Ohio,Lake County,Lake County Board of Elections,,105 Main St.,Suite 107 ,Painesville OH 44077,(440) 350-2670,(440) 350-2700,41.725304,-81.24284,Y,Y,Y,N,hours,N,Government,ohio-boe-offices,US/Eastern,NULL,NULL,NULL,U,U
Ohio,Logan County,Logan County Board of Elections,,225 S. Main St. ,,Bellefontaine OH 44311,(937) 599-7270,(937) 599-7255,40.358932,-83.75996,Y,Y,Y,N,hours,N,Government,ohio-boe-offices,US/Eastern,NULL,NULL,NULL,U,U
Ohio,Mahoning County,Mahoning County Board of Elections,,345 Oak Hill Ave. Entrance A ,,Youngstown OH 44502,(330) 783-2801,(330) 783-2474,41.09592,-80.659515,Y,Y,Y,N,hours,N,Government,ohio-boe-offices,US/Eastern,NULL,NULL,NULL,U,U
Ohio,Marion County,Marion County Board of Elections,,222 W. Center St. ,,Marion OH 43302,(740) 223-4099,(740) 223-4090,40.58852,-83.132324,Y,Y,Y,N,hours,N,Government,ohio-boe-offices,US/Eastern,NULL,NULL,NULL,U,U
Ohio,Ottawa County,Ottawa County Board of Elections,Outdoor drop box,8444 W. State Route 163,Suite 101  ,Oak Harbor OH 43449,(419) 898-3146,(419) 898-3071,41.50818,-83.09587,Y,N,N,NULL,continuous,Y,Government,ohio-boe-dropbox,US/Eastern,2020/10/05 08:00,2020/11/03 19:30,NULL,U,U
Ohio,Pickaway County,Pickaway County Board of Elections,Outdoor drop box,141 W. Main St.,Suite 800 ,Circleville OH 43113,(740) 477-2991,(740) 474-1100,39.60223,-82.94624,Y,N,N,NULL,continuous,Y,Government,ohio-boe-dropbox,US/Eastern,2020/10/05 08:00,2020/11/03 19:30,NULL,U,U
Ohio,Stark County,Stark County Board of Elections,Outdoor drop box,3525 Regent Ave. NE ,,Canton OH 44705,(330) 451-7000,(330) 451-8683,40.835583,-81.33642,Y,N,N,NULL,continuous,Y,Government,ohio-boe-dropbox,US/Eastern,2020/10/05 08:00,2020/11/03 19:30,NULL,U,U
Ohio,Summit County,Summit County Board of Elections,Outdoor drop box,470 Grant St. ,,Akron OH 44311,(330) 643-5422,(330) 643-5200,41.070267,-81.518,Y,N,N,NULL,continuous,Y,Government,ohio-boe-dropbox,US/Eastern,2020/10/05 08:00,2020/11/03 19:30,NULL,U,U
Ohio,Williams County,Williams County Board of Elections,,1425 E. High St.,Suite 104 ,Bryan OH 43506,(419) 636-2975,(419) 636-1854,41.47453,-84.57282,Y,Y,Y,N,hours,N,Government,ohio-boe-offices,US/Eastern,NULL,NULL,NULL,U,U
Ohio,Wood County,Wood County Board of Elections,,1 Court House Sq.  ,,Bowling Green OH 43402,(419) 354-1730,(419) 354-9120,41.375996,-83.647896,Y,Y,Y,N,hours,N,Government,ohio-boe-offices,US/Eastern,NULL,NULL,NULL,U,U
Ohio,Medina County,Medina County Board of Elections,,3800 Stonegate Drive,Suite C ,Medina OH 44256,(330) 722-9299,(330) 722-9278,41.16476,-81.859764,Y,Y,Y,N,hours,N,Government,ohio-boe-offices,US/Eastern,NULL,NULL,NULL,U,U
Ohio,Mercer County,Mercer County Board of Elections,,101 N. Main St.,Room 107 ,Celina OH 45822,(419) 586-2748,(419) 586-2215,40.54913,-84.57081,Y,Y,Y,N,hours,N,Government,ohio-boe-offices,US/Eastern,NULL,NULL,NULL,U,U
Ohio,Montgomery County,Montgomery County Board of Elections,,451 W. Third St.,,Dayton OH 45422,(937) 496-7798,(937) 225-5656,39.758305,-84.199295,Y,Y,Y,N,hours,N,Government,ohio-boe-offices,US/Eastern,NULL,NULL,NULL,U,U
Ohio,Warren County,Warren County Board of Elections,Outdoor drop box,520 Justice Dr. ,,Lebanon OH 45036,(513) 695-2953,(513) 695-1358,39.42445,-84.20051,Y,N,N,NULL,continuous,Y,Government,ohio-boe-dropbox,US/Eastern,2020/10/05 08:00,2020/11/03 19:30,NULL,U,U
Ohio,Washington County,Washington County Board of Elections,Outdoor drop box,204 Davis Ave.,Suite B ,Marietta OH 45750,(740) 374-7698,(740) 374-6828,39.44022,-81.46015,Y,N,N,NULL,continuous,Y,Government,ohio-boe-dropbox,US/Eastern,2020/10/05 08:00,2020/11/03 19:30,NULL,U,U
Ohio,Adams County,Adams County Board of Elections,Outdoor drop box,215 N. Cross St.,Room 103  ,West Union OH 45693,(937) 544-5111,(937) 544-2633,38.79506,-83.54653,Y,N,N,NULL,continuous,Y,Government,ohio-boe-dropbox,US/Eastern,2020/10/05 08:00,2020/11/03 19:30,NULL,U,U
Ohio,Darke County,Darke County Board of Elections,,300 Garst Ave.,Suite 7 ,Greenville OH 45331,(937) 548-2820,(937) 548-1835,40.10756,-84.634674,Y,Y,Y,N,hours,N,Government,ohio-boe-offices,US/Eastern,NULL,NULL,NULL,U,U
Ohio,Clark County,Clark County Board of Elections,,3130 E. Main St. ,,Springfield OH 45501,(937) 328-2603,(937) 521-2120,39.923374,-83.75879,Y,Y,Y,N,hours,N,Government,ohio-boe-offices,US/Eastern,NULL,NULL,NULL,U,U
Ohio,Clermont County,Clermont County Board of Elections,,76 S. Riverside Dr. ,,Batavia OH 45103,(513) 732-7330,(513) 732-7275,39.07772,-84.17902,Y,Y,Y,N,hours,N,Government,ohio-boe-offices,US/Eastern,NULL,NULL,NULL,U,U
Ohio,Washington County,Washington County Board of Elections,,204 Davis Ave.,Suite B ,Marietta OH 45750,(740) 374-7698,(740) 374-6828,39.44022,-81.46015,Y,Y,Y,N,hours,N,Government,ohio-boe-offices,US/Eastern,NULL,NULL,NULL,U,U
Ohio,Adams County,Adams County Board of Elections,,215 N. Cross St.,Room 103  ,West Union OH 45693,(937) 544-5111,(937) 544-2633,38.79506,-83.54653,Y,Y,Y,N,hours,N,Government,ohio-boe-offices,US/Eastern,NULL,NULL,NULL,U,U
Ohio,Erie County,Erie County Board of Elections,,2900 Columbus Ave.,Room 101 ,Sandusky OH 44870,(419) 626-0034,(419) 627-7601,41.426357,-82.69413,Y,Y,Y,N,hours,N,Government,ohio-boe-offices,US/Eastern,NULL,NULL,NULL,U,U
Ohio,Fairfield County,Fairfield County Board of Elections,,951 Liberty Dr. ,,Lancaster OH 43130,(740) 681-4727,(740) 652-7000,39.72976,-82.66381,Y,Y,Y,N,hours,N,Government,ohio-boe-offices,US/Eastern,NULL,NULL,NULL,U,U
Ohio,Clinton County,Clinton County Board of Elections,Outdoor drop box,111 S. Nelson Ave.,Suite 4,Wilmington OH 45177,(937) 383-3538,(937) 382-3537,39.443268,-83.85176,Y,N,N,NULL,continuous,Y,Government,ohio-boe-dropbox,US/Eastern,2020/10/05 08:00,2020/11/03 19:30,NULL,U,U
Ohio,Columbiana County,Columbiana County Board of Elections,Outdoor drop box,7989 Dickey Dr.,Suite 3 ,Lisbon OH 44432,(330) 424-6661,(330) 424-1448,40.785667,-80.77284,Y,N,N,NULL,continuous,Y,Government,ohio-boe-dropbox,US/Eastern,2020/10/05 08:00,2020/11/03 19:30,NULL,U,U
Ohio,Coshocton County,Coshocton County Board of Elections,Outdoor drop box,724 S. 7th St.,Room 100 ,Coshocton OH 43812,(740) 623-6524,(740) 622-1117,40.266975,-81.859695,Y,N,N,NULL,continuous,Y,Government,ohio-boe-dropbox,US/Eastern,2020/10/05 08:00,2020/11/03 19:30,NULL,U,U
Ohio,Lorain County,Lorain County Board of Elections,Outdoor drop box,1985 North Ridge Rd. E ,,Lorain OH 44055,,(440) 326-5900  ,41.418243,-82.127174,Y,N,N,NULL,continuous,Y,Government,ohio-boe-dropbox,US/Eastern,2020/10/05 08:00,2020/11/03 19:30,NULL,U,U
Ohio,Madison County,Madison County Board of Elections,,1423 State Route 38 SE ,,London OH 43140,(740) 852-7131,(740) 852-9424,39.95767,-83.43384,Y,Y,Y,N,hours,N,Government,ohio-boe-offices,US/Eastern,NULL,NULL,NULL,U,U
Ohio,Tuscarawas County,Tuscarawas County Board of Elections,Outdoor drop box,101 E. High Ave.  ,,New Philadelphia OH 44663,(330) 343-3125,(330) 343-8819,40.48957,-81.44536,Y,N,N,NULL,continuous,Y,Government,ohio-boe-dropbox,US/Eastern,2020/10/05 08:00,2020/11/03 19:30,NULL,U,U
Ohio,Lawrence County,Lawrence County Board of Elections,,111 S. Fourth St. ,,Ironton OH 45638,(740) 533-2730,(740) 532-0444,38.535942,-82.6844,Y,Y,Y,N,hours,N,Government,ohio-boe-offices,US/Eastern,NULL,NULL,NULL,U,U
Ohio,Pike County,Pike County Board of Elections,Outdoor drop box,230 Waverly Plaza,Suite 1100 ,Waverly OH 45690,(740) 947-5973,(740) 947-4512,NULL,NULL,Y,N,N,NULL,continuous,Y,Government,ohio-boe-dropbox,US/Eastern,2020/10/05 08:00,2020/11/03 19:30,NULL,U,U
Ohio,Licking County,Licking County Board of Elections,,20 S. Second St. ,,Newark OH 43055,(740) 670-5081,(740) 670-5080,40.12813,-82.33952,Y,Y,Y,N,hours,N,Government,ohio-boe-offices,US/Eastern,NULL,NULL,NULL,U,U
Ohio,Carroll County,Carroll County Board of Elections,Outdoor drop box,119 S. Lisbon St.,Suite 102 ,Carrollton OH 44615,(330) 627-5387,(330) 627-2610,40.571617,-81.08717,Y,N,N,NULL,continuous,Y,Government,ohio-boe-dropbox,US/Eastern,2020/10/05 08:00,2020/11/03 19:30,NULL,U,U
Ohio,Tuscarawas County,Tuscarawas County Board of Elections,,101 E. High Ave.  ,,New Philadelphia OH 44663,(330) 343-3125,(330) 343-8819,40.48957,-81.44536,Y,Y,Y,N,hours,N,Government,ohio-boe-offices,US/Eastern,NULL,NULL,NULL,U,U
Ohio,Carroll County,Carroll County Board of Elections,,119 S. Lisbon St.,Suite 102 ,Carrollton OH 44615,(330) 627-5387,(330) 627-2610,40.571617,-81.08717,Y,Y,Y,N,hours,N,Government,ohio-boe-offices,US/Eastern,NULL,NULL,NULL,U,U
Ohio,Brown County,Brown County Board of Elections,Outdoor drop box,800 Mt. Orab Pike,Suite 111 ,Georgetown OH 45121,(937) 378-6457,(937) 378-3008,38.878536,-83.900665,Y,N,N,NULL,continuous,Y,Government,ohio-boe-dropbox,US/Eastern,2020/10/05 08:00,2020/11/03 19:30,NULL,U,U
Ohio,Butler County,Butler County Board of Elections,Outdoor drop box,1802 Princeton Rd.,Suite 600 ,Hamilton OH 45011,(513) 887-5535,(513) 887-3700,39.392323,-84.53161,Y,N,N,NULL,continuous,Y,Government,ohio-boe-dropbox,US/Eastern,2020/10/05 08:00,2020/11/03 19:30,NULL,U,U
Ohio,Lawrence County,Lawrence County Board of Elections,Outdoor drop box,111 S. Fourth St. ,,Ironton OH 45638,(740) 533-2730,(740) 532-0444,38.535942,-82.6844,Y,N,N,NULL,continuous,Y,Government,ohio-boe-dropbox,US/Eastern,2020/10/05 08:00,2020/11/03 19:30,NULL,U,U
Ohio,Licking County,Licking County Board of Elections,Outdoor drop box,20 S. Second St. ,,Newark OH 43055,(740) 670-5081,(740) 670-5080,40.12813,-82.33952,Y,N,N,NULL,continuous,Y,Government,ohio-boe-dropbox,US/Eastern,2020/10/05 08:00,2020/11/03 19:30,NULL,U,U
District of Columbia,District of Columbia,The ARC,NULL,1901 Mississippi Avenue SE,NULL,Washington DC 20020,NULL,NULL,38.84355746,-76.97532187,Y,NULL,NULL,N,continuous,Y,Business,dc-drop-box,US/Eastern,2020/10/05 01:00,2020/11/03 20:00,NULL,U,U
District of Columbia,District of Columbia,Anacostia Library,NULL,1800 Good Hope Road SE,NULL,Washington DC 20020,NULL,NULL,38.86598623,-76.97854393,Y,NULL,NULL,N,continuous,Y,Library,dc-drop-box,US/Eastern,2020/10/05 01:00,2020/11/03 20:00,NULL,U,U
District of Columbia,District of Columbia,Northeast Library,NULL,330 7th Street NE,NULL,Washington DC 20002,NULL,NULL,38.89440853,-76.99643011,Y,NULL,NULL,N,continuous,Y,Library,dc-drop-box,US/Eastern,2020/10/05 01:00,2020/11/03 20:00,NULL,U,U
District of Columbia,District of Columbia,Chevy Chase Library,NULL,5625 Connecticut Avenue NW,NULL,Washington DC 20015,NULL,NULL,38.96557557,-77.07542972,Y,NULL,NULL,N,continuous,Y,Library,dc-drop-box,US/Eastern,2020/10/05 01:00,2020/11/03 20:00,NULL,U,U
District of Columbia,District of Columbia,West End Library,NULL,2301 L Street NW,NULL,Washington DC 20037,NULL,NULL,38.90396584,-77.05062968,Y,NULL,NULL,N,continuous,Y,Library,dc-drop-box,US/Eastern,2020/10/05 01:00,2020/11/03 20:00,NULL,U,U
District of Columbia,District of Columbia,Martin Luther King Jr. Library,NULL,901 G Street NW,NULL,Washington DC 20001,NULL,NULL,38.89869166,-77.02476625,Y,NULL,NULL,N,continuous,Y,Library,dc-drop-box,US/Eastern,2020/10/05 01:00,2020/11/03 20:00,NULL,U,U
District of Columbia,District of Columbia,Georgetown Library,NULL,3260 R Street NW,NULL,Washington DC 20007,NULL,NULL,38.91340152,-77.06601466,Y,NULL,NULL,N,continuous,Y,Library,dc-drop-box,US/Eastern,2020/10/05 01:00,2020/11/03 20:00,NULL,U,U
District of Columbia,District of Columbia,Mt. Pleasant Library,NULL,3160 16th Street NW,NULL,Washington DC 20010,NULL,NULL,38.93046772,-77.0371446,Y,NULL,NULL,N,continuous,Y,Library,dc-drop-box,US/Eastern,2020/10/05 01:00,2020/11/03 20:00,NULL,U,U
District of Columbia,District of Columbia,Takoma Metro,NULL,327 Cedar Street NW,NULL,Washington DC 20012,NULL,NULL,38.97503585,-77.01756889,Y,NULL,NULL,N,continuous,Y,Metro Station,dc-drop-box,US/Eastern,2020/10/05 01:00,2020/11/03 20:00,NULL,U,U
District of Columbia,District of Columbia,Seventh District Police Station,NULL,2455 Alabama Avenue SE,NULL,Washington DC 20020,NULL,NULL,38.85339973,-76.96954788,Y,NULL,NULL,N,continuous,Y,Police Station,dc-drop-box,US/Eastern,2020/10/05 01:00,2020/11/03 20:00,NULL,U,U
District of Columbia,District of Columbia,Banneker Community Center,NULL,2500 Georgia Avenue NW,NULL,Washington DC 20001,NULL,NULL,38.92270429,-77.02258308,Y,NULL,NULL,N,continuous,Y,Recreation Center,dc-drop-box,US/Eastern,2020/10/05 01:00,2020/11/03 20:00,NULL,U,U
District of Columbia,District of Columbia,Hendley Elementary School,NULL,425 Chesapeake Street SE,NULL,Washington DC 20032,NULL,NULL,38.82898591,-76.99918485,Y,NULL,NULL,N,continuous,Y,School,dc-drop-box,US/Eastern,2020/10/05 01:00,2020/11/03 20:00,NULL,U,U
District of Columbia,District of Columbia,Dunbar High School,NULL,101 N Street NW,NULL,Washington DC 20001,NULL,NULL,38.90762655,-77.01269148,Y,NULL,NULL,N,continuous,Y,School,dc-drop-box,US/Eastern,2020/10/05 01:00,2020/11/03 20:00,NULL,U,U
District of Columbia,District of Columbia,Eastern Market,NULL,225 7th Street SE,NULL,Washington DC 20003,NULL,NULL,38.88641312,-76.99646843,Y,NULL,NULL,N,continuous,Y,Business,dc-drop-box,US/Eastern,2020/10/05 01:00,2020/11/03 20:00,NULL,U,U
District of Columbia,District of Columbia,Rhode Island Place Shopping Center,Around the Giant Grocery store area,1060 Brentwood Road NE,NULL,Washington DC 20018,NULL,NULL,38.92018824,-76.99377059,Y,NULL,NULL,N,continuous,Y,Business,dc-drop-box,US/Eastern,2020/10/05 01:00,2020/11/03 20:00,NULL,U,U
District of Columbia,District of Columbia,Monroe Street Market,Outside Busboys and Poets closer to curb,625 Monroe Street NE,NULL,Washington DC 20017,NULL,NULL,38.93205742,-76.99704088,Y,NULL,NULL,N,continuous,Y,Business,dc-drop-box,US/Eastern,2020/10/05 01:00,2020/11/03 20:00,NULL,U,U
District of Columbia,District of Columbia,Union Market DC,NULL,1309 5th Street NE,NULL,Washington DC 20002,NULL,NULL,38.90871669,-76.99765027,Y,NULL,NULL,N,continuous,Y,Business,dc-drop-box,US/Eastern,2020/10/05 01:00,2020/11/03 20:00,NULL,U,U
District of Columbia,District of Columbia,Sun Trust Bank (Park Area),NULL,1800 Columbia Road NW,NULL,Washington DC 20009,NULL,NULL,38.92215973,-77.04286488,Y,NULL,NULL,N,continuous,Y,Business,dc-drop-box,US/Eastern,2020/10/05 01:00,2020/11/03 20:00,NULL,U,U
District of Columbia,District of Columbia,Columbia Heights Shopping Center,NULL,3100 14th Street NW,NULL,Washington DC 20010,NULL,NULL,38.92930077,-77.03298372,Y,NULL,NULL,N,continuous,Y,Business,dc-drop-box,US/Eastern,2020/10/05 01:00,2020/11/03 20:00,NULL,U,U
District of Columbia,District of Columbia,Benning Ridge Service Center (DMV),NULL,4525 Benning Road SE,NULL,Washington DC 20019,NULL,NULL,38.88866008,-76.93744805,Y,NULL,NULL,N,continuous,Y,Government,dc-drop-box,US/Eastern,2020/10/05 01:00,2020/11/03 20:00,NULL,U,U
District of Columbia,District of Columbia,BOE Headquarters,NULL,1015 Half Street SE,NULL,Washington DC 20003,NULL,NULL,38.87795235,-77.00792537,Y,NULL,NULL,N,continuous,Y,Government,dc-drop-box,US/Eastern,2020/10/05 01:00,2020/11/03 20:00,NULL,U,U
District of Columbia,District of Columbia,Frank D. Reeves Center,NULL,2000 14th Street NW,NULL,Washington DC 20009,NULL,NULL,38.9175693,-77.03251498,Y,NULL,NULL,N,continuous,Y,Government,dc-drop-box,US/Eastern,2020/10/05 01:00,2020/11/03 20:00,NULL,U,U
District of Columbia,District of Columbia,Bellevue (William O. Lockridge) Library,NULL,115 Atlantic Street SW,NULL,Washington DC 20032,NULL,NULL,38.83132585,-77.0093649,Y,NULL,NULL,N,continuous,Y,Library,dc-drop-box,US/Eastern,2020/10/05 01:00,2020/11/03 20:00,NULL,U,U
District of Columbia,District of Columbia,Parklands-Turner Library,NULL,1547 Alabama Avenue SE,NULL,Washington DC 20032,NULL,NULL,38.84618686,-76.98125132,Y,NULL,NULL,N,continuous,Y,Library,dc-drop-box,US/Eastern,2020/10/05 01:00,2020/11/03 20:00,NULL,U,U
District of Columbia,District of Columbia,Perry Street Prep Charter School,NULL,1800 Perry Street NE,NULL,Washington DC 20018,NULL,NULL,38.93679648,-76.97859551,Y,NULL,NULL,N,continuous,Y,School,dc-drop-box,US/Eastern,2020/10/05 01:00,2020/11/03 20:00,NULL,U,U
District of Columbia,District of Columbia,UDC Community College @Backus,NULL,5171 South Dakota Avenue NE,NULL,Washington DC 20017,NULL,NULL,38.95334086,-76.99726739,Y,NULL,NULL,N,continuous,Y,School,dc-drop-box,US/Eastern,2020/10/05 01:00,2020/11/03 20:00,NULL,U,U
District of Columbia,District of Columbia,Penn Branch Center,Backside Parking Lot,3202 Pennsylvania Avenue SE,NULL,Washington DC 20020,NULL,NULL,38.86999812,-76.96011482,Y,NULL,NULL,N,continuous,Y,Business,dc-drop-box,US/Eastern,2020/10/05 01:00,2020/11/03 20:00,NULL,U,U
Ohio,Morgan County,Morgan County Board of Elections,,155 E. Main St.,Room 157 ,McConnelsville OH 43756,(740) 962-3099,(740) 962-3116,39.64874,-81.851685,Y,Y,Y,N,hours,N,Government,ohio-boe-offices,US/Eastern,NULL,NULL,NULL,U,U
Ohio,Morrow County,Morrow County Board of Elections,,619 W. Marion Rd.,Room 146  ,Mt. Gilead OH 43338,(419) 946-9861,(419) 946-4026,40.549297,-82.849495,Y,Y,Y,N,hours,N,Government,ohio-boe-offices,US/Eastern,NULL,NULL,NULL,U,U
Ohio,Muskingum County,Muskingum County Board of Elections,,627 Market Street,,Zanesville OH 43701,(740) 455-7178,(740) 455-7120,39.94173,-82.00471,Y,Y,Y,N,hours,N,Government,ohio-boe-offices,US/Eastern,NULL,NULL,NULL,U,U
Ohio,Paulding County,Paulding County Board of Elections,,105 E. Perry St. ,,Paulding OH 45879,(419) 399-8250,(419) 399-8230,41.13733,-84.580605,Y,Y,Y,N,hours,N,Government,ohio-boe-offices,US/Eastern,NULL,NULL,NULL,U,U
Ohio,Perry County,Perry County Board of Elections,,200 S. Jackson St.   ,,New Lexington OH 43764,(740) 342-4787,(740) 342-2134,39.713554,-82.20585,Y,Y,Y,N,hours,N,Government,ohio-boe-offices,US/Eastern,NULL,NULL,NULL,U,U
Ohio,Portage County,Portage County Board of Elections,,449 S. Meridian St.,Room 101 ,Ravenna OH 44266,(330) 297-3518,(330) 297-3511,41.15307,-81.24509,Y,Y,Y,N,hours,N,Government,ohio-boe-offices,US/Eastern,NULL,NULL,NULL,U,U
Ohio,Stark County,Stark County Board of Elections,,3525 Regent Ave. NE ,,Canton OH 44705,(330) 451-7000,(330) 451-8683,40.835583,-81.33642,Y,Y,Y,N,hours,N,Government,ohio-boe-offices,US/Eastern,NULL,NULL,NULL,U,U
Ohio,Summit County,Summit County Board of Elections,,470 Grant St. ,,Akron OH 44311,(330) 643-5422,(330) 643-5200,41.070267,-81.518,Y,Y,Y,N,hours,N,Government,ohio-boe-offices,US/Eastern,NULL,NULL,NULL,U,U
Ohio,Warren County,Warren County Board of Elections,,520 Justice Dr. ,,Lebanon OH 45036,(513) 695-2953,(513) 695-1358,39.42445,-84.20051,Y,Y,Y,N,hours,N,Government,ohio-boe-offices,US/Eastern,NULL,NULL,NULL,U,U
Ohio,Noble County,Noble County Board of Elections,,140 Court House ,,Caldwell OH 43724,(740) 732-6577,(740) 732-2057,NULL,NULL,Y,Y,Y,N,hours,N,Government,ohio-boe-offices,US/Eastern,NULL,NULL,NULL,U,U
Ohio,Pike County,Pike County Board of Elections,,230 Waverly Plaza,Suite 1100 ,Waverly OH 45690,(740) 947-5973,(740) 947-4512,NULL,NULL,Y,Y,Y,N,hours,N,Government,ohio-boe-offices,US/Eastern,NULL,NULL,NULL,U,U
Ohio,Allen County,Allen County Board of Elections,Outdoor drop box,204 N. Main St.,,Lima OH 45801,(419) 222-0311,(419) 223-8530,40.74155,-84.10498,Y,N,N,NULL,continuous,Y,Government,ohio-boe-dropbox,US/Eastern,2020/10/05 08:00,2020/11/03 19:30,NULL,U,U
Ohio,Ashland County,Ashland County Board of Elections,Outdoor drop box,110 Cottage St.,Suite 106 ,Ashland OH 44805,(419) 282-4260,(419) 282-4224,40.868816,-82.31785,Y,N,N,NULL,continuous,Y,Government,ohio-boe-dropbox,US/Eastern,2020/10/05 08:00,2020/11/03 19:30,NULL,U,U
Ohio,Ashtabula County,Ashtabula County Board of Elections,Outdoor drop box,8 W. Walnut St. ,,Jefferson OH 44047,(440) 576-1445,(440) 576-6915,41.740376,-80.76993,Y,N,N,NULL,continuous,Y,Government,ohio-boe-dropbox,US/Eastern,2020/10/05 08:00,2020/11/03 19:30,NULL,U,U
Ohio,Athens County,Athens County Board of Elections,Outdoor drop box,15 S. Court St.,Room 130 ,Athens OH 45701,(740) 592-3262,(740) 592-3201,39.328617,-82.10123,Y,N,N,NULL,continuous,Y,Government,ohio-boe-dropbox,US/Eastern,2020/10/05 08:00,2020/11/03 19:30,NULL,U,U
Ohio,Auglaize County,Auglaize County Board of Elections,Outdoor drop box,209 S. Blackhoof,Room 205 ,Wapakoneta OH 45895,(419) 739-6721,(419) 739-6720,40.56277,-84.19688,Y,N,N,NULL,continuous,Y,Government,ohio-boe-dropbox,US/Eastern,2020/10/05 08:00,2020/11/03 19:30,NULL,U,U
Ohio,Lucas County,Lucas County Board of Elections,Outdoor drop box,1 Government Center,Suite 300 ,Toledo OH 43604,(419) 213-4069 ,(419) 213-4001 ,NULL,NULL,Y,N,N,NULL,continuous,Y,Government,ohio-boe-dropbox,US/Eastern,2020/10/05 08:00,2020/11/03 19:30,NULL,U,U
Ohio,Vinton County,Vinton County Board of Elections,Outdoor drop box,31935 SR 93 ,,McArthur OH 45651,(740) 596-1907,(740) 596-5855,NULL,NULL,Y,N,N,NULL,continuous,Y,Government,ohio-boe-dropbox,US/Eastern,2020/10/05 08:00,2020/11/03 19:30,NULL,U,U
Ohio,Champaign County,Champaign County Board of Elections,Outdoor drop box,1512 South U.S. Hwy 68,Suite L100 ,Urbana OH 43078,(937) 484-1578,(937) 484-1575,NULL,NULL,Y,N,N,NULL,continuous,Y,Government,ohio-boe-dropbox,US/Eastern,2020/10/05 08:00,2020/11/03 19:30,NULL,U,U
Ohio,Hardin County,Hardin County Board of Elections,,1 Court House Sq.,Suite 40 ,Kenton OH 43326,,(419) 674-2211  ,NULL,NULL,Y,Y,Y,N,hours,N,Government,ohio-boe-offices,US/Eastern,NULL,NULL,NULL,U,U
Ohio,Noble County,Noble County Board of Elections,Outdoor drop box,140 Court House ,,Caldwell OH 43724,(740) 732-6577,(740) 732-2057,NULL,NULL,Y,N,N,NULL,continuous,Y,Government,ohio-boe-dropbox,US/Eastern,2020/10/05 08:00,2020/11/03 19:30,NULL,U,U
Ohio,Sandusky County,Sandusky County Board of Elections,Outdoor drop box,2020 Countryside Dr. ,,Fremont OH 43420,(419) 334-6184,(419) 334-6180,NULL,NULL,Y,N,N,NULL,continuous,Y,Government,ohio-boe-dropbox,US/Eastern,2020/10/05 08:00,2020/11/03 19:30,NULL,U,U
Ohio,Highland County,Highland County Board of Elections,Outdoor drop box,1575 N. High St.,Suite 200 ,Hillsboro OH 45133,(937) 393-5854,(937) 393-9961,NULL,NULL,Y,N,N,NULL,continuous,Y,Government,ohio-boe-dropbox,US/Eastern,2020/10/05 08:00,2020/11/03 19:30,NULL,U,U
District of Columbia,District of Columbia,TURKEY THICKET RECREATION CENTER,Gymnasium,1100 MICHIGAN AVENUE NE,NULL,Washington DC 20017,NULL,NULL,38.9382039,-76.9931008,Y,Y,NULL,N,hours,NULL,Unknown,dc-early-voting,US/Eastern,NULL,NULL,NULL,U,U
District of Columbia,District of Columbia,DOCK 5 @ UNION MARKET,Event Space,1309 5TH STREET NE,NULL,Washington DC 20002,NULL,NULL,38.9086156,-76.9977223,Y,Y,NULL,N,hours,NULL,Unknown,dc-early-voting,US/Eastern,NULL,NULL,NULL,U,U
District of Columbia,District of Columbia,Francis A Gregory Library,NULL,3660 Alabama Avenue SE,NULL,Washington DC 20020,NULL,NULL,38.8648716,-76.95420121,Y,NULL,NULL,N,continuous,Y,Library,dc-drop-box,US/Eastern,2020/10/05 01:00,2020/11/03 20:00,NULL,U,U
District of Columbia,District of Columbia,Deanwood Library,NULL,1350 49th Street NE,NULL,Washington DC 20019,NULL,NULL,38.90844496,-76.93215558,Y,NULL,NULL,N,continuous,Y,Library,dc-drop-box,US/Eastern,2020/10/05 01:00,2020/11/03 20:00,NULL,U,U
District of Columbia,District of Columbia,Petworth Library,NULL,4200 Kansas Avenue NW,NULL,Washington DC 20011,NULL,NULL,38.94220022,-77.02613743,Y,NULL,NULL,N,continuous,Y,Library,dc-drop-box,US/Eastern,2020/10/05 01:00,2020/11/03 20:00,NULL,U,U
District of Columbia,District of Columbia,Palisades Library,NULL,4901 V Street NW,NULL,Washington DC 20007,NULL,NULL,38.9183818,-77.09717464,Y,NULL,NULL,N,continuous,Y,Library,dc-drop-box,US/Eastern,2020/10/05 01:00,2020/11/03 20:00,NULL,U,U
District of Columbia,District of Columbia,Cleveland Park Library,NULL,4901 V Street NW,NULL,Washington DC 20007,NULL,NULL,38.9183818,-77.09717464,Y,NULL,NULL,N,continuous,Y,Library,dc-drop-box,US/Eastern,2020/10/05 01:00,2020/11/03 20:00,NULL,U,U
District of Columbia,District of Columbia,Tenley-Friendship Library,NULL,4450 Wisconsin Avenue NW,NULL,Washington DC 20016,NULL,NULL,38.94760729,-77.07994743,Y,NULL,NULL,N,continuous,Y,Library,dc-drop-box,US/Eastern,2020/10/05 01:00,2020/11/03 20:00,NULL,U,U
District of Columbia,District of Columbia,Sixth District Police Station,NULL,5002 Hayes Street NE,NULL,Washington DC 20019,NULL,NULL,38.90036493,-76.9301502,Y,NULL,NULL,N,continuous,Y,Police Station,dc-drop-box,US/Eastern,2020/10/05 01:00,2020/11/03 20:00,NULL,U,U
District of Columbia,District of Columbia,Fourth District Police Station,NULL,6001 Georgia Avenue NW,NULL,Washington DC 20011,NULL,NULL,38.96312578,-77.02741098,Y,NULL,NULL,N,continuous,Y,Police Station,dc-drop-box,US/Eastern,2020/10/05 01:00,2020/11/03 20:00,NULL,U,U
District of Columbia,District of Columbia,Second District Police Station,NULL,3320 Idaho Avenue NW,NULL,Washington DC 20016,NULL,NULL,38.93484617,-77.07483805,Y,NULL,NULL,N,continuous,Y,Police Station,dc-drop-box,US/Eastern,2020/10/05 01:00,2020/11/03 20:00,NULL,U,U
District of Columbia,District of Columbia,Ridge Road Community Center,NULL,830 Ridge Road SE,NULL,Washington DC 20019,NULL,NULL,38.87643362,-76.94072305,Y,NULL,NULL,N,continuous,Y,Recreation Center,dc-drop-box,US/Eastern,2020/10/05 01:00,2020/11/03 20:00,NULL,U,U
Ohio,Lorain County,Lorain County Board of Elections,,1985 North Ridge Rd. E ,,Lorain OH 44055,,(440) 326-5900  ,NULL,NULL,Y,Y,Y,N,hours,N,Government,ohio-boe-offices,US/Eastern,NULL,NULL,NULL,U,U
District of Columbia,District of Columbia,Joseph H. Cole Recreation Center,NULL,1299 Neal Street NE,NULL,Washington DC 20002,NULL,NULL,38.90411774,-76.98850077,Y,NULL,NULL,N,continuous,Y,Recreation Center,dc-drop-box,US/Eastern,2020/10/05 01:00,2020/11/03 20:00,NULL,U,U
District of Columbia,District of Columbia,Lamond Recreation Center,NULL,20 Tuckerman Street NE,NULL,Washington DC 20011,NULL,NULL,38.96772726,-77.00823768,Y,NULL,NULL,N,continuous,Y,Recreation Center,dc-drop-box,US/Eastern,2020/10/05 01:00,2020/11/03 20:00,NULL,U,U
District of Columbia,District of Columbia,Stead Recreation Center,NULL,1625 P Street NW,NULL,Washington DC 20036,NULL,NULL,38.91002497,-77.03762074,Y,NULL,NULL,N,continuous,Y,Recreation Center,dc-drop-box,US/Eastern,2020/10/05 01:00,2020/11/03 20:00,NULL,U,U
District of Columbia,District of Columbia,Guy Mason Recreation Center,NULL,3600 Calvert Street NW,NULL,Washington DC 20007,NULL,NULL,38.92215059,-77.07119822,Y,NULL,NULL,N,continuous,Y,Recreation Center,dc-drop-box,US/Eastern,2020/10/05 01:00,2020/11/03 20:00,NULL,U,U
District of Columbia,District of Columbia,Shaw (Watha T. Daniel) Library,NULL,1630 7th Street NW,NULL,Washington DC 20001,NULL,NULL,38.91244216,-77.02221836,Y,NULL,NULL,N,continuous,Y,Library,dc-drop-box,US/Eastern,2020/10/05 01:00,2020/11/03 20:00,NULL,U,U
District of Columbia,District of Columbia,Woodridge Library,NULL,1801 Hamlin Street NE,NULL,Washington DC 20018,NULL,NULL,38.92741373,-76.97863547,Y,NULL,NULL,N,continuous,Y,Library,dc-drop-box,US/Eastern,2020/10/05 01:00,2020/11/03 20:00,NULL,U,U
District of Columbia,District of Columbia,Shephard Park (Juanita E. Thornton) Library,NULL,7420 Georgia Avenue NW,NULL,Washington DC 20012,NULL,NULL,38.98029047,-77.02700556,Y,NULL,NULL,N,continuous,Y,Library,dc-drop-box,US/Eastern,2020/10/05 01:00,2020/11/03 20:00,NULL,U,U
District of Columbia,District of Columbia,Benning (Dorothy I. Height) Library,NULL,3935 Benning Road NE,NULL,Washington DC 20019,NULL,NULL,38.89413388,-76.94780521,Y,NULL,NULL,N,continuous,Y,Library,dc-drop-box,US/Eastern,2020/10/05 01:00,2020/11/03 20:00,NULL,U,U
Ohio,Champaign County,Champaign County Board of Elections,,1512 South U.S. Hwy 68,Suite L100 ,Urbana OH 43078,(937) 484-1578,(937) 484-1575,NULL,NULL,Y,Y,Y,N,hours,N,Government,ohio-boe-offices,US/Eastern,NULL,NULL,NULL,U,U
District of Columbia,District of Columbia,Capital View Library,NULL,5001 Central Avenue SE,NULL,Washington DC 20019,NULL,NULL,38.88895483,-76.92957721,Y,NULL,NULL,N,continuous,Y,Library,dc-drop-box,US/Eastern,2020/10/05 01:00,2020/11/03 20:00,NULL,U,U
District of Columbia,District of Columbia,Southwest Library,NULL,425 M Street SW,NULL,Washington DC 20024,NULL,NULL,38.87684182,-77.01871456,Y,NULL,NULL,N,continuous,Y,Library,dc-drop-box,US/Eastern,2020/10/05 01:00,2020/11/03 20:00,NULL,U,U
District of Columbia,District of Columbia,Rosedale Library,NULL,1701 Gales Street NE,NULL,Washington DC 20002,NULL,NULL,38.89781195,-76.97913403,Y,NULL,NULL,N,continuous,Y,Library,dc-drop-box,US/Eastern,2020/10/05 01:00,2020/11/03 20:00,NULL,U,U
Ohio,Clinton County,Clinton County Board of Elections,,111 S. Nelson Ave.,Suite 4,Wilmington OH 45177,(937) 383-3538,(937) 382-3537,39.443268,-83.85176,Y,Y,Y,N,hours,N,Government,ohio-boe-offices,US/Eastern,NULL,NULL,NULL,U,U
Ohio,Columbiana County,Columbiana County Board of Elections,,7989 Dickey Dr.,Suite 3 ,Lisbon OH 44432,(330) 424-6661,(330) 424-1448,40.785667,-80.77284,Y,Y,Y,N,hours,N,Government,ohio-boe-offices,US/Eastern,NULL,NULL,NULL,U,U
Ohio,Coshocton County,Coshocton County Board of Elections,,724 S. 7th St.,Room 100 ,Coshocton OH 43812,(740) 623-6524,(740) 622-1117,40.266975,-81.859695,Y,Y,Y,N,hours,N,Government,ohio-boe-offices,US/Eastern,NULL,NULL,NULL,U,U
Ohio,Trumbull County,Trumbull County Board of Elections,,2947 Youngstown Rd. SE,,Warren OH 44484,(330) 369-4160,(330) 369-4050,41.22148,-80.782715,Y,Y,Y,N,hours,N,Government,ohio-boe-offices,US/Eastern,NULL,NULL,NULL,U,U
District of Columbia,District of Columbia,COLUMBIA HEIGHTS COMMUNITY CENTER,Gymnasium,1480 GIRARD STREET NW,NULL,Washington DC 20009,NULL,NULL,38.9251495,-77.0351963,Y,Y,NULL,N,hours,NULL,Unknown,dc-early-voting,US/Eastern,NULL,NULL,NULL,U,U
District of Columbia,District of Columbia,PRINCE HALL CENTER (MASONIC TEMPLE),Ballroom,1000 U STREET NW,NULL,Washington DC 20001,NULL,NULL,38.9168397,-77.0263125,Y,Y,NULL,N,hours,NULL,Unknown,dc-early-voting,US/Eastern,NULL,NULL,NULL,U,U
Ohio,Delaware County,Delaware County Board of Elections,,2079 U.S. HWY 23 North ,,Delaware OH 43015,(740) 833-2079,(740) 833-2080,NULL,NULL,Y,Y,Y,N,hours,N,Government,ohio-boe-offices,US/Eastern,NULL,NULL,NULL,U,U
District of Columbia,District of Columbia,HARDY MIDDLE SCHOOL,Gymnasium,1819 35TH STREET NW,NULL,Washington DC 20007,NULL,NULL,38.9154072,-77.0690316,Y,Y,NULL,N,hours,NULL,Unknown,dc-early-voting,US/Eastern,NULL,NULL,NULL,U,U
District of Columbia,District of Columbia,CAPITAL ONE SPORTS ARENA,Concourse Area,601 F STREET NW,NULL,Washington DC 20004,NULL,NULL,38.8979456,-77.021193,Y,Y,NULL,N,hours,NULL,Unknown,dc-early-voting,US/Eastern,NULL,NULL,NULL,U,U
Ohio,Lucas County,Lucas County Board of Elections,,1 Government Center,Suite 300 ,Toledo OH 43604,(419) 213-4069 ,(419) 213-4001 ,NULL,NULL,Y,Y,Y,N,hours,N,Government,ohio-boe-offices,US/Eastern,NULL,NULL,NULL,U,U
District of Columbia,District of Columbia,Patterson Elementary School,NULL,4399 South Capitol Terrace SW,NULL,Washington DC 20032,NULL,NULL,38.82678236,-77.00823801,Y,NULL,NULL,N,continuous,Y,School,dc-drop-box,US/Eastern,2020/10/05 01:00,2020/11/03 20:00,NULL,U,U
District of Columbia,District of Columbia,Department of Human Services,NULL,2100 Martin Luther King Jr. Avenue SE,NULL,Washington DC 20020,NULL,NULL,38.86535189,-76.98922845,Y,NULL,NULL,N,continuous,Y,Government,dc-drop-box,US/Eastern,2020/10/05 01:00,2020/11/03 20:00,NULL,U,U
District of Columbia,District of Columbia,OMNI SHOREHAM HOTEL,Ballroom,2500 CALVERT STREET NW,NULL,Washington DC 20008,NULL,NULL,38.9226587,-77.0533136,Y,Y,NULL,N,hours,NULL,Unknown,dc-early-voting,US/Eastern,NULL,NULL,NULL,U,U
District of Columbia,District of Columbia,UNIVERSITY OF THE DISTRICT OF COLUMBIA,TBD,4200 CONNECTICUT AVENUE NW,NULL,Washington DC 20008,NULL,NULL,38.9439072,-77.0644019,Y,Y,NULL,N,hours,NULL,Unknown,dc-early-voting,US/Eastern,NULL,NULL,NULL,U,U
District of Columbia,District of Columbia,IDA B. WELLS MIDDLE SCHOOL,Gymnasium,405 SHERIDAN STREET NW,NULL,Washington DC 20011,NULL,NULL,38.9665997,-77.0195231,Y,Y,NULL,N,hours,NULL,Unknown,dc-early-voting,US/Eastern,NULL,NULL,NULL,U,U
District of Columbia,District of Columbia,EMERY HEIGHTS COMMUNITY CENTER,Gymnasium,5801 GEORGIA AVENUE NW,NULL,Washington DC 20011,NULL,NULL,38.958654,-77.0278703,Y,Y,NULL,N,hours,NULL,Unknown,dc-early-voting,US/Eastern,NULL,NULL,NULL,U,U
Ohio,Hardin County,Hardin County Board of Elections,Outdoor drop box,1 Court House Sq.,Suite 40 ,Kenton OH 43326,,(419) 674-2211  ,NULL,NULL,Y,N,N,NULL,continuous,Y,Government,ohio-boe-dropbox,US/Eastern,2020/10/05 08:00,2020/11/03 19:30,NULL,U,U
Ohio,Defiance County,Defiance County Board of Elections,Outdoor drop box,1300 E. Second St.,Suite 103 ,Defiance OH 43512,(419) 782-5773,(419) 782-8543,41.282776,-84.34169,Y,N,N,NULL,continuous,Y,Government,ohio-boe-dropbox,US/Eastern,2020/10/05 08:00,2020/11/03 19:30,NULL,U,U
Ohio,Monroe County,Monroe County Board of Elections,Outdoor drop box,117 N Main St,Suite 12 ,Woodsfield OH 43793,(740) 472-2517,(740) 472-0929,39.76345,-81.11543,Y,N,N,NULL,continuous,Y,Government,ohio-boe-dropbox,US/Eastern,2020/10/05 08:00,2020/11/03 19:30,NULL,U,U
Ohio,Allen County,Allen County Board of Elections,,204 N. Main St.,,Lima OH 45801,(419) 222-0311,(419) 223-8530,40.74155,-84.10498,Y,Y,Y,N,hours,N,Government,ohio-boe-offices,US/Eastern,NULL,NULL,NULL,U,U
District of Columbia,District of Columbia,MURCH ELEMENTARY SCHOOL,Gymnasium,4810 36th St NW,NULL,Washington DC 20008,NULL,NULL,38.9529525,-77.070474,Y,Y,NULL,N,hours,NULL,Unknown,dc-early-voting,US/Eastern,NULL,NULL,NULL,U,U
District of Columbia,District of Columbia,HORACE MANN ELEMENTARY SCHOOL,Multi-Purpose Room,"4430 Newark Street, NW",NULL,Washington DC 20016,NULL,NULL,38.9343436,-77.0883238,Y,Y,NULL,N,hours,NULL,Unknown,dc-early-voting,US/Eastern,NULL,NULL,NULL,U,U
District of Columbia,District of Columbia,LAFAYETTE ELEMENTARY SCHOOL,Gymnasium,"5701 Broad Branch Road, NW",NULL,Washington DC 20015,NULL,NULL,38.9660532,-77.0675906,Y,Y,NULL,N,hours,NULL,Unknown,dc-early-voting,US/Eastern,NULL,NULL,NULL,U,U
District of Columbia,District of Columbia,RAYMOND RECREATION CENTER,Gymnasium,"3725 10th Street, NW",NULL,Washington DC 20010,NULL,NULL,38.9359617,-77.0268526,Y,Y,NULL,N,hours,NULL,Unknown,dc-early-voting,US/Eastern,NULL,NULL,NULL,U,U
District of Columbia,District of Columbia,SHEPHERD ELEMENTARY SCHOOL,Gymnasium,"3725 10th Street, NW",NULL,Washington DC 20012,NULL,NULL,38.9849465,-77.0339605,Y,Y,NULL,N,hours,NULL,Unknown,dc-early-voting,US/Eastern,NULL,NULL,NULL,U,U
District of Columbia,District of Columbia,McKINLEY TECHNOLOGY HIGH SCHOOL,Gymnasium,"151 T Street, NE",NULL,Washington DC 20002,NULL,NULL,38.9152416,-77.0050031,Y,Y,NULL,N,hours,NULL,Unknown,dc-early-voting,US/Eastern,NULL,NULL,NULL,U,U
District of Columbia,District of Columbia,TRINIDAD RECREATION CENTER,Gymnasium,"1310 Childress Street, NE",NULL,Washington DC 20002,NULL,NULL,38.9065087,-76.982494,Y,Y,NULL,N,hours,NULL,Unknown,dc-early-voting,US/Eastern,NULL,NULL,NULL,U,U
District of Columbia,District of Columbia,KENNEDY RECREATION CENTER,Gymnasium,"1401 7th Street, NW",NULL,Washington DC 20001,NULL,NULL,38.9092402,-77.021532,Y,Y,NULL,N,hours,NULL,Unknown,dc-early-voting,US/Eastern,NULL,NULL,NULL,U,U
District of Columbia,District of Columbia,WALKER-JONES EDUCATION CAMPUS,Gymnasium,"1125 New Jersey Avenue, NW",NULL,Washington DC 20001,NULL,NULL,38.9045691,-77.0141184,Y,Y,NULL,N,hours,NULL,Unknown,dc-early-voting,US/Eastern,NULL,NULL,NULL,U,U
District of Columbia,District of Columbia,HILLCREST RECREATION CENTER,Gymnasium,"3100 Denver Street, SE",NULL,Washington DC 20020,NULL,NULL,38.85844,-76.9626086,Y,Y,NULL,N,hours,NULL,Unknown,dc-early-voting,US/Eastern,NULL,NULL,NULL,U,U
District of Columbia,District of Columbia,ANACOSTIA SENIOR HIGH SCHOOL,Gymnasium,"1601 16th Street, SE",NULL,Washington DC 20020,NULL,NULL,38.8697678,-76.9828989,Y,Y,NULL,N,hours,NULL,Unknown,dc-early-voting,US/Eastern,NULL,NULL,NULL,U,U
District of Columbia,District of Columbia,BALLOU SENIOR HIGH SCHOOL,Gymnasium,"3401 4th Street, SE",NULL,Washington DC 20032,NULL,NULL,38.8375856,-77.0010957,Y,Y,NULL,N,hours,NULL,Unknown,dc-early-voting,US/Eastern,NULL,NULL,NULL,U,U
District of Columbia,District of Columbia,BARRY FARMS RECREATION CENTER,Gymnasium,"1230 Sumner Road, SE",NULL,Washington DC 20020,NULL,NULL,38.8605522,-76.9968868,Y,Y,NULL,N,hours,NULL,Unknown,dc-early-voting,US/Eastern,NULL,NULL,NULL,U,U
District of Columbia,District of Columbia,RIDGE ROAD COMMUNITY CENTER,Gymnasium,830 Ridge Road SE,NULL,Washington DC 20019,NULL,NULL,38.876205,-76.9405834,Y,Y,NULL,N,hours,NULL,Unknown,dc-early-voting,US/Eastern,NULL,NULL,NULL,U,U
Ohio,Ashland County,Ashland County Board of Elections,,110 Cottage St.,Suite 106 ,Ashland OH 44805,(419) 282-4260,(419) 282-4224,40.868816,-82.31785,Y,Y,Y,N,hours,N,Government,ohio-boe-offices,US/Eastern,NULL,NULL,NULL,U,U
Ohio,Ashtabula County,Ashtabula County Board of Elections,,8 W. Walnut St. ,,Jefferson OH 44047,(440) 576-1445,(440) 576-6915,41.740376,-80.76993,Y,Y,Y,N,hours,N,Government,ohio-boe-offices,US/Eastern,NULL,NULL,NULL,U,U
Ohio,Athens County,Athens County Board of Elections,,15 S. Court St.,Room 130 ,Athens OH 45701,(740) 592-3262,(740) 592-3201,39.328617,-82.10123,Y,Y,Y,N,hours,N,Government,ohio-boe-offices,US/Eastern,NULL,NULL,NULL,U,U
Ohio,Auglaize County,Auglaize County Board of Elections,,209 S. Blackhoof,Room 205 ,Wapakoneta OH 45895,(419) 739-6721,(419) 739-6720,40.56277,-84.19688,Y,Y,Y,N,hours,N,Government,ohio-boe-offices,US/Eastern,NULL,NULL,NULL,U,U
Ohio,Belmont County,Belmont County Board of Elections,,52180 National Road,PO Box 994 ,St. Clairsville OH 43950,(740) 526-0512,(740) 526-0188,40.07161,-80.846085,Y,Y,Y,N,hours,N,Government,ohio-boe-offices,US/Eastern,NULL,NULL,NULL,U,U
Ohio,Cuyahoga County,Cuyahoga County Board of Elections,,2925 Euclid Ave. ,,Cleveland OH 44115,(216) 443-6633,(216) 443-8683,41.502495,-81.66806,Y,Y,Y,N,hours,N,Government,ohio-boe-offices,US/Eastern,NULL,NULL,NULL,U,U
Ohio,Crawford County,Crawford County Board of Elections,,112 East Mansfield St.,Suite A ,Bucyrus OH 44820,(419) 562-2235,(419) 562-8721,40.80868,-82.97481,Y,Y,Y,N,hours,N,Government,ohio-boe-offices,US/Eastern,NULL,NULL,NULL,U,U
Ohio,Brown County,Brown County Board of Elections,,800 Mt. Orab Pike,Suite 111 ,Georgetown OH 45121,(937) 378-6457,(937) 378-3008,38.878536,-83.900665,Y,Y,Y,N,hours,N,Government,ohio-boe-offices,US/Eastern,NULL,NULL,NULL,U,U
Ohio,Butler County,Butler County Board of Elections,,1802 Princeton Rd.,Suite 600 ,Hamilton OH 45011,(513) 887-5535,(513) 887-3700,39.392323,-84.53161,Y,Y,Y,N,hours,N,Government,ohio-boe-offices,US/Eastern,NULL,NULL,NULL,U,U
Ohio,Defiance County,Defiance County Board of Elections,,1300 E. Second St.,Suite 103 ,Defiance OH 43512,(419) 782-5773,(419) 782-8543,41.282776,-84.34169,Y,Y,Y,N,hours,N,Government,ohio-boe-offices,US/Eastern,NULL,NULL,NULL,U,U
Ohio,Putnam County,Putnam County Board of Elections,,575 Ottawa-Glandorf Road,Suite 2 ,Ottawa OH 45875,(419) 538-6993,(419) 538-6850,41.021473,-84.064224,Y,Y,Y,N,hours,N,Government,ohio-boe-offices,US/Eastern,NULL,NULL,NULL,U,U
Ohio,Richland County,Richland County Board of Elections,,1495 W. Longview Ave.,Suite 101 ,Mansfield OH 44906,(419) 774-5534,(419) 774-5530,40.776123,-82.56857,Y,Y,Y,N,hours,N,Government,ohio-boe-offices,US/Eastern,NULL,NULL,NULL,U,U
Ohio,Scioto County,Scioto County Board of Elections,,602 7th St.,Rm 105 ,Portsmouth OH 45662,(740) 355-8326,(740) 353-4178,38.735718,-83.00044,Y,Y,Y,N,hours,N,Government,ohio-boe-offices,US/Eastern,NULL,NULL,NULL,U,U
Ohio,Seneca County,Seneca County Board of Elections,,71 S. Washington St.,Ste. 1101 ,Tiffin OH 44883,(419) 443-7925,(419) 447-4424,41.11563,-83.17672,Y,Y,Y,N,hours,N,Government,ohio-boe-offices,US/Eastern,NULL,NULL,NULL,U,U
District of Columbia,District of Columbia,SHERWOOD RECREATION CENTER,Gymnasium,640 10TH STREET NE,NULL,Washington DC 20002,NULL,NULL,38.8987631,-76.9931641,Y,Y,NULL,N,hours,NULL,Unknown,dc-early-voting,US/Eastern,NULL,NULL,NULL,U,U
District of Columbia,District of Columbia,DEANWOOD RECREATION CENTER,Gymnasium,1350 49TH STREET NE,NULL,Washington DC 20019,NULL,NULL,38.9084462,-76.9323215,Y,Y,NULL,N,hours,NULL,Unknown,dc-early-voting,US/Eastern,NULL,NULL,NULL,U,U
District of Columbia,District of Columbia,MALCOLM X OPPORTUNITY CENTER,Gymnasium,1351 ALABAMA AVENUE SE,NULL,Washington DC 20032,NULL,NULL,38.8448487,-76.9865404,Y,Y,NULL,N,hours,NULL,Unknown,dc-early-voting,US/Eastern,NULL,NULL,NULL,U,U
District of Columbia,District of Columbia,FEREBEE-HOPE RECREATION CENTER,Gymnasium,3999 8TH STREET SE,NULL,Washington DC 20032,NULL,NULL,38.8323555,-76.9954017,Y,Y,NULL,N,hours,NULL,Unknown,dc-early-voting,US/Eastern,NULL,NULL,NULL,U,U
District of Columbia,District of Columbia,Marie Reed Elementary School,Gymnasium,"2201 18th Street, NW",NULL,Washington DC 20009,NULL,NULL,38.9186918,-77.0409336,Y,Y,NULL,N,hours,NULL,Unknown,dc-early-voting,US/Eastern,NULL,NULL,NULL,U,U
District of Columbia,District of Columbia,SCHOOL WITHOUT WALLS @ FRANCIS STEVENS,Gymnasium,"2425 N Street, NW",NULL,Washington DC 20037,NULL,NULL,38.9078046,-77.0523144,Y,Y,NULL,N,hours,NULL,Unknown,dc-early-voting,US/Eastern,NULL,NULL,NULL,U,U
Ohio,Sandusky County,Sandusky County Board of Elections,,2020 Countryside Dr. ,,Fremont OH 43420,(419) 334-6184,(419) 334-6180,NULL,NULL,Y,Y,Y,N,hours,N,Government,ohio-boe-offices,US/Eastern,NULL,NULL,NULL,U,U
District of Columbia,District of Columbia,BENNING STODDERT RECREATION CENTER,Gymnasium,100 STODDERT PLACE SE,NULL,Washington DC 20019,NULL,NULL,38.8888962,-76.9483421,Y,Y,NULL,N,hours,NULL,Unknown,dc-early-voting,US/Eastern,NULL,NULL,NULL,U,U
District of Columbia,District of Columbia,WASHINGTON NATIONALS PARK,Concourse Area,1500 SOUTH CAPITOL STREET SE,NULL,Washington DC 20003,NULL,NULL,38.8720164,-77.0079497,Y,Y,NULL,N,hours,NULL,Unknown,dc-early-voting,US/Eastern,NULL,NULL,NULL,U,U
Ohio,Shelby County,Shelby County Board of Elections,,230 E. Court St. ,,Sidney OH 45365,(937) 498-7326,(937) 498-7207,40.28442,-84.15454,Y,Y,Y,N,hours,N,Government,ohio-boe-offices,US/Eastern,NULL,NULL,NULL,U,U
Ohio,Van Wert County,Van Wert County Board of Elections,,1362 East Ervin Road ,,Van Wert OH 45891,(419) 238-7145,(419) 238-4192,40.85912,-84.56174,Y,Y,Y,N,hours,N,Government,ohio-boe-offices,US/Eastern,NULL,NULL,NULL,U,U
Ohio,Wayne County,Wayne County Board of Elections,,200 Vanover St.,Suite 1 ,Wooster OH 44691,(330) 287-5686,(330) 287-5480,40.796093,-81.94826,Y,Y,Y,N,hours,N,Government,ohio-boe-offices,US/Eastern,NULL,NULL,NULL,U,U
Ohio,Wyandot County,Wyandot County Board of Elections,,350 North Warpole Street,Upper,Sandusky OH 43351,(419) 294-6437,(419) 294-1226,40.831448,-83.29012,Y,Y,Y,N,hours,N,Government,ohio-boe-offices,US/Eastern,NULL,NULL,NULL,U,U
Ohio,Franklin County,Franklin County Board of Elections,,1700 Morse Road ,,Columbus OH 43229,(614) 525-3489,(614) 525-3100 ,40.06042,-82.97369,Y,Y,Y,N,hours,N,Government,ohio-boe-offices,US/Eastern,NULL,NULL,NULL,U,U
Ohio,Meigs County,Meigs County Board of Elections,,113 E. Memorial Dr.,Suite A ,Pomeroy OH 45769,(740) 992-2645,(740) 992-2697,39.037395,-82.045,Y,Y,Y,N,hours,N,Government,ohio-boe-offices,US/Eastern,NULL,NULL,NULL,U,U
Ohio,Ottawa County,Ottawa County Board of Elections,,8444 W. State Route 163,Suite 101  ,Oak Harbor OH 43449,(419) 898-3146,(419) 898-3071,41.50818,-83.09587,Y,Y,Y,N,hours,N,Government,ohio-boe-offices,US/Eastern,NULL,NULL,NULL,U,U
Ohio,Pickaway County,Pickaway County Board of Elections,,141 W. Main St.,Suite 800 ,Circleville OH 43113,(740) 477-2991,(740) 474-1100,39.60223,-82.94624,Y,Y,Y,N,hours,N,Government,ohio-boe-offices,US/Eastern,NULL,NULL,NULL,U,U
Ohio,Union County,Union County Board of Elections,,835 East Fifth Street,Suite A ,Marysville OH 43040,(937) 642-2823,(937) 642-2836,40.235676,-83.35563,Y,Y,Y,N,hours,N,Government,ohio-boe-offices,US/Eastern,NULL,NULL,NULL,U,U
Ohio,Highland County,Highland County Board of Elections,,1575 N. High St.,Suite 200 ,Hillsboro OH 45133,(937) 393-5854,(937) 393-9961,NULL,NULL,Y,Y,Y,N,hours,N,Government,ohio-boe-offices,US/Eastern,NULL,NULL,NULL,U,U
Ohio,Vinton County,Vinton County Board of Elections,,31935 SR 93 ,,McArthur OH 45651,(740) 596-1907,(740) 596-5855,NULL,NULL,Y,Y,Y,N,hours,N,Government,ohio-boe-offices,US/Eastern,NULL,NULL,NULL,U,U
Ohio,Greene County,Greene County Board of Elections,,551 Ledbetter Rd,,Xenia OH 45385,(937) 562-6171,(937) 562-6170,39.667633,-83.94438,Y,Y,Y,N,hours,N,Government,ohio-boe-offices,US/Eastern,NULL,NULL,NULL,U,U
Ohio,Hamilton County,Hamilton County Board of Elections,,4700 Smith Road,,Cincinnati OH 45212,(513) 579-0988,(513) 632-7000,39.160984,-84.45387,Y,Y,Y,N,hours,N,Government,ohio-boe-offices,US/Eastern,NULL,NULL,NULL,U,U
Ohio,Holmes County,Holmes County Board of Elections,,75 E. Clinton St.,Suite 108 ,Millersburg OH 44654,(330) 674-5978,(330) 674-5921,40.555447,-81.916466,Y,Y,Y,N,hours,N,Government,ohio-boe-offices,US/Eastern,NULL,NULL,NULL,U,U
Ohio,Jefferson County,Jefferson County Board of Elections,,500 Market St.,Fl. 1,Steubenville OH 43952,(740) 314-8992,(740) 283-8522,40.360405,-80.61649,Y,Y,Y,N,hours,N,Government,ohio-boe-offices,US/Eastern,NULL,NULL,NULL,U,U
Ohio,Ross County,Ross County Board of Elections,,475 Western Ave.,Suite D ,Chillicothe OH 45601,(740) 775-2383,(740) 775-2350,39.334225,-83.00327,Y,Y,Y,N,hours,N,Government,ohio-boe-offices,US/Eastern,NULL,NULL,NULL,U,U
Ohio,Gallia County,Gallia County Board of Elections,,18 Locust St.,2nd Floor ,Gallipolis OH 45631,(740) 441-2049,(740) 446-1600,38.80879,-82.20273,Y,Y,Y,N,hours,N,Government,ohio-boe-offices,US/Eastern,NULL,NULL,NULL,U,U
Ohio,Miami County,Miami County Board of Elections,,215 W. Main St. ,,Troy OH 45373,(937) 440-3901,(937) 440-3900,40.040565,-84.20552,Y,Y,Y,N,hours,N,Government,ohio-boe-offices,US/Eastern,NULL,NULL,NULL,U,U
Ohio,Preble County,Preble County Board of Elections,,101 E. Main St.,1st Floor ,Eaton OH 45320,(937) 456-2986,(937) 456-8117,39.743935,-84.63635,Y,Y,Y,N,hours,N,Government,ohio-boe-offices,US/Eastern,NULL,NULL,NULL,U,U
Ohio,Monroe County,Monroe County Board of Elections,,117 North Main Street,Suite 12 ,Woodsfield OH 43793,(740) 472-2517,(740) 472-0929,NULL,NULL,Y,Y,Y,N,hours,N,Government,ohio-boe-offices,US/Eastern,NULL,NULL,NULL,U,U
Ohio,Huron County,Huron County Board of Elections,,180 Milan Ave.,Suite 4 ,Norwalk OH 44857,(419) 668-8710,(419) 668-8238,NULL,NULL,Y,Y,Y,N,hours,N,Government,ohio-boe-offices,US/Eastern,NULL,NULL,NULL,U,U
Ohio,Erie County,Erie County Board of Elections,Outdoor drop box,2900 Columbus Ave.,Room 101 ,Sandusky OH 44870,(419) 626-0034,(419) 627-7601,41.426357,-82.69413,Y,N,N,NULL,continuous,Y,Government,ohio-boe-dropbox,US/Eastern,2020/10/05 08:00,2020/11/03 19:30,NULL,U,U
Ohio,Fairfield County,Fairfield County Board of Elections,Outdoor drop box,951 Liberty Dr. ,,Lancaster OH 43130,(740) 681-4727,(740) 652-7000,39.72976,-82.66381,Y,N,N,NULL,continuous,Y,Government,ohio-boe-dropbox,US/Eastern,2020/10/05 08:00,2020/11/03 19:30,NULL,U,U
Ohio,Greene County,Greene County Board of Elections,Outdoor drop box,551 Ledbetter Rd,,Xenia OH 45385,(937) 562-6171,(937) 562-6170,39.667633,-83.94438,Y,N,N,NULL,continuous,Y,Government,ohio-boe-dropbox,US/Eastern,2020/10/05 08:00,2020/11/03 19:30,NULL,U,U
Ohio,Hamilton County,Hamilton County Board of Elections,Outdoor drop box,4700 Smith Road,,Cincinnati OH 45212,(513) 579-0988,(513) 632-7000,39.160984,-84.45387,Y,N,N,NULL,continuous,Y,Government,ohio-boe-dropbox,US/Eastern,2020/10/05 08:00,2020/11/03 19:30,NULL,U,U
Ohio,Holmes County,Holmes County Board of Elections,Outdoor drop box,75 E. Clinton St.,Suite 108 ,Millersburg OH 44654,(330) 674-5978,(330) 674-5921,40.555447,-81.916466,Y,N,N,NULL,continuous,Y,Government,ohio-boe-dropbox,US/Eastern,2020/10/05 08:00,2020/11/03 19:30,NULL,U,U
Ohio,Jefferson County,Jefferson County Board of Elections,Outdoor drop box,500 Market St.,Fl. 1,Steubenville OH 43952,(740) 314-8992,(740) 283-8522,40.360405,-80.61649,Y,N,N,NULL,continuous,Y,Government,ohio-boe-dropbox,US/Eastern,2020/10/05 08:00,2020/11/03 19:30,NULL,U,U
Ohio,Ross County,Ross County Board of Elections,Outdoor drop box,475 Western Ave.,Suite D ,Chillicothe OH 45601,(740) 775-2383,(740) 775-2350,39.334225,-83.00327,Y,N,N,NULL,continuous,Y,Government,ohio-boe-dropbox,US/Eastern,2020/10/05 08:00,2020/11/03 19:30,NULL,U,U
Ohio,Gallia County,Gallia County Board of Elections,Outdoor drop box,18 Locust St.,2nd Floor ,Gallipolis OH 45631,(740) 441-2049,(740) 446-1600,38.80879,-82.20273,Y,N,N,NULL,continuous,Y,Government,ohio-boe-dropbox,US/Eastern,2020/10/05 08:00,2020/11/03 19:30,NULL,U,U
Ohio,Miami County,Miami County Board of Elections,Outdoor drop box,215 W. Main St. ,,Troy OH 45373,(937) 440-3901,(937) 440-3900,40.040565,-84.20552,Y,N,N,NULL,continuous,Y,Government,ohio-boe-dropbox,US/Eastern,2020/10/05 08:00,2020/11/03 19:30,NULL,U,U
Ohio,Preble County,Preble County Board of Elections,Outdoor drop box,101 E. Main St.,1st Floor ,Eaton OH 45320,(937) 456-2986,(937) 456-8117,39.743935,-84.63635,Y,N,N,NULL,continuous,Y,Government,ohio-boe-dropbox,US/Eastern,2020/10/05 08:00,2020/11/03 19:30,NULL,U,U
Ohio,Delaware County,Delaware County Board of Elections,Outdoor drop box,2079 U.S. HWY 23 N,,Delaware OH 43015,(740) 833-2079,(740) 833-2080,NULL,NULL,Y,N,N,NULL,continuous,Y,Government,ohio-boe-dropbox,US/Eastern,2020/10/05 08:00,2020/11/03 19:30,NULL,U,U
Ohio,Huron County,Huron County Board of Elections,Outdoor drop box,180 Milan Ave.,Suite 4 ,Norwalk OH 44857,(419) 668-8710,(419) 668-8238,NULL,NULL,Y,N,N,NULL,continuous,Y,Government,ohio-boe-dropbox,US/Eastern,2020/10/05 08:00,2020/11/03 19:30,NULL,U,U