state,county,location_type,address_1,address_2,city,state_2,zip,phone,email,fax,notes,hours
Montana,Beaverhead,Unknown,2 S Pacific St,No 3,Dillon,MT,59725,(406) 683-3720,sreynolds@beaverheadcounty.org,(406) 683-3781,,Monday:08:00-17:00;Tuesday:08:00-17:00;Wednesday:08:00-17:00;Thursday:08:00-17:00;Friday:08:00-17:00;11/3:07:00-20:00
Montana,Beaverhead,Unknown,415 Jardine Ave,,Jackson,MT,,(406) 683-3720,sreynolds@beaverheadcounty.org,(406) 683-3781,,11/3:12:00-20:00
Montana,Beaverhead,Unknown,5 W Sec Corner,,Lima,MT,,(406) 683-3720,sreynolds@beaverheadcounty.org,(406) 683-3781,,11/3:12:00-20:00
Montana,Beaverhead,Unknown,64845 Hwy 43,,Wise River,MT,,(406) 683-3720,sreynolds@beaverheadcounty.org,(406) 683-3781,,11/3:12:00-20:00
Montana,Big Horn,Unknown,121 3rd St W,Rm 228,Hardin,MT,59034,(406) 665-9796,dbeardontwalk@bighorncountymt.gov,(406) 665-9824,,"Monday:08:00-12:00,13:00-17:00;Tuesday:08:00-12:00,13:00-17:00;Wednesday:08:00-12:00,13:00-17:00;Thursday:08:00-12:00,13:00-17:00;Friday:08:00-12:00,13:00-17:00;11/3:07:00-20:00"
Montana,Big Horn,Unknown,157 Sawyer Loop,,Hardin,MT,,(406) 665-9796,dbeardontwalk@bighorncountymt.gov,(406) 665-9824,,11/3:07:00-20:00
Montana,Big Horn,Unknown,212 Mission Loop,,St Xavier,MT,,(406) 665-9796,dbeardontwalk@bighorncountymt.gov,(406) 665-9824,,11/3:12:00-20:00
Montana,Big Horn,Unknown,Crow Tribal Multipurpose Building,,Crow Agency,MT,,(406) 665-9796,dbeardontwalk@bighorncountymt.gov,(406) 665-9824,,11/3:07:00-20:00
Montana,Big Horn,Unknown,Sarpy Community Hall,,Hardin,MT,,(406) 665-9796,dbeardontwalk@bighorncountymt.gov,(406) 665-9824,,11/3:12:00-20:00
Montana,Big Horn,Unknown,124 N George St,,Lodge Grass,MT,,(406) 665-9796,dbeardontwalk@bighorncountymt.gov,(406) 665-9824,,11/3:07:00-20:00
Montana,Big Horn,Unknown,1 Lakeshore Dr,,Decker,MT,,(406) 665-9796,dbeardontwalk@bighorncountymt.gov,(406) 665-9824,,11/3:12:00-20:00
Montana,Big Horn,Unknown,Wyola School,,Wyola,MT,,(406) 665-9796,dbeardontwalk@bighorncountymt.gov,(406) 665-9824,,11/3:07:00-20:00
Montana,Big Horn,Unknown,111 White Horse Ln,,Billings,MT,,(406) 665-9796,dbeardontwalk@bighorncountymt.gov,(406) 665-9824,,11/3:07:00-20:00
Montana,Big Horn,Unknown,Busby School,,Busby,MT,,(406) 665-9796,dbeardontwalk@bighorncountymt.gov,(406) 665-9824,,11/3:07:00-20:00
Montana,Blaine,Unknown,420 Ohio St,,Chinook,MT,59523,(406) 357-3240,twilliams@blainecounty-mt.gov,(406) 357-2199,,Monday:08:00-17:00;Tuesday:08:00-17:00;Wednesday:08:00-17:00;Thursday:08:00-17:00;Friday:08:00-17:00;11/3:07:00-20:00
Montana,Blaine,Unknown,200 Chippewa Ave,,Harlem,MT,,(406) 357-3240,twilliams@blainecounty-mt.gov,(406) 357-2199,,Wednesday:10:00-17:00;Thursday:10:00-17:00
Montana,Broadwater,Unknown,515 Broadway St,,Townsend,MT,59644,(406) 266-3443,dellis@co.broadwater.mt.us,(406) 266-3674,,Monday:08:00-17:00;Tuesday:08:00-17:00;Wednesday:08:00-17:00;Thursday:08:00-17:00;Friday:08:00-17:00;11/3:07:00-20:00
Montana,Carbon,Unknown,17 W 11th St,,Red Lodge,MT,59068,(406) 446-1220,elections@co.carbon.mt.us,(406) 446-2640,,Monday:08:00-17:00;Tuesday:08:00-17:00;Wednesday:08:00-17:00;Thursday:08:00-17:00;Friday:08:00-17:00;11/2:12:00-17:00;11/3:07:00-20:00
Montana,Carter,Unknown,214 Park St,,Ekalaka,MT,59324,(406) 775-8749,cccnrc@midrivers.com,(406) 775-8750,,"Monday:08:00-12:00,13:00-17:00;Tuesday:08:00-12:00,13:00-17:00;Wednesday:08:00-12:00,13:00-17:00;Thursday:08:00-12:00,13:00-17:00;Friday:08:00-12:00,13:00-17:00;11/3:07:00-20:00"
Montana,Cascade,Unknown,325 2nd Ave N,,Great Falls,MT,59403,(406) 454-6803,rfmoore@cascadecountymt.gov,(406) 454-6725,,Monday:08:00-17:00;Tuesday:08:00-17:00;Wednesday:08:00-17:00;Thursday:08:00-17:00;Friday:08:00-17:00;11/3:07:00-17:00
Montana,Cascade,Unknown,400 3rd St W,,Great Falls,MT,,(406) 454-6803,rfmoore@cascadecountymt.gov,(406) 454-6725,,11/2:07:00-12:00;11/3:07:00-20:00
Montana,Cascade,Unknown,13319 MT HWY 200,,Fort Shaw,MT,,(406) 454-6803,rfmoore@cascadecountymt.gov,(406) 454-6725,,11/3:07:00-20:00
Montana,Cascade,Unknown,19 Castner St,,Belt,MT,,(406) 454-6803,rfmoore@cascadecountymt.gov,(406) 454-6725,,11/3:07:00-20:00
Montana,Cascade,Unknown,13 Front St,,Cascade,MT,,(406) 454-6803,rfmoore@cascadecountymt.gov,(406) 454-6725,,11/3:07:00-20:00
Montana,Cascade,Unknown,14 4th St,,Vaughn,MT,,(406) 454-6803,rfmoore@cascadecountymt.gov,(406) 454-6725,,11/3:07:00-20:00
Montana,Chouteau,Unknown,1308 Franklin St,,Fort Benton,MT,59442,(406) 622-5151,claassen@itstriangle.com,(406) 622-3012,,Monday:08:00-17:00;Tuesday:08:00-17:00;Wednesday:08:00-17:00;Thursday:08:00-17:00;Friday:08:00-17:00;11/3:07:00-20:00
Montana,Custer,Unknown,1010 Main,Ste 17,Miles City,MT,59301,(406) 874-3343,l.corbett@co.custer.mt.us,(406) 874-3452,,Monday:08:00-17:00;Tuesday:08:00-17:00;Wednesday:08:00-17:00;Thursday:08:00-17:00;Friday:08:00-17:00;11/3:07:00-20:00
Montana,Daniels,Unknown,213 Main St,,Scobey,MT,59263,(406) 487-5561,clerkrec@danielsco.mt.gov,(406) 487-5583,,Monday:08:00-17:00;Tuesday:08:00-17:00;Wednesday:08:00-17:00;Thursday:08:00-17:00;Friday:08:00-17:00;11/3:07:00-20:00
Montana,Dawson,Unknown,207 West Bell,,Glendive,MT,59330,(406) 377-3058,kreimans@dawsoncountymontana.com,(406) 377-1717,,Monday:08:00-17:00;Tuesday:08:00-17:00;Wednesday:08:00-17:00;Thursday:08:00-17:00;Friday:08:00-17:00;11/3:07:00-20:00
Montana,Deer Lodge,Unknown,800 Main,,Anaconda,MT,59711,(406) 563-4046,awilson@adlc.us,(406) 563-4078,,Monday:08:00-17:00;Tuesday:08:00-17:00;Wednesday:08:00-17:00;Thursday:08:00-17:00;Friday:08:00-17:00;11/3:07:00-20:00
Montana,Fallon,Unknown,10 W Fallon Ave,,Baker,MT,59313,(406) 778-7106,falloncc@midrivers.com,(406) 778-2048,,Monday:08:00-17:00;Tuesday:08:00-17:00;Wednesday:08:00-17:00;Thursday:08:00-17:00;Friday:08:00-17:00;11/3:07:00-20:00
Montana,Fergus,Unknown,712 W Main,Ste 204,Lewistown,MT,59457,(406) 535-5242,clerkrecorder@co.fergus.mt.us,(406) 535-9023,,Monday:08:00-17:00;Tuesday:08:00-17:00;Wednesday:08:00-17:00;Thursday:08:00-17:00;Friday:08:00-17:00;11/3:07:00-20:00
Montana,Flathead,Unknown,40 11th St W ,Ste 230,Kalispell,MT,59901,(406) 758-5535,dpierson@flathead.mt.gov,(406) 758-5877,,Monday:08:00-17:00;Tuesday:08:00-17:00;Wednesday:08:00-17:00;Thursday:08:00-17:00;Friday:08:00-17:00;11/3:07:00-20:00
Montana,Flathead,Unknown,8559 MT Hwy 35,,Bigfork,MT,,(406) 758-5535,dpierson@flathead.mt.gov,(406) 758-5877,,11/3:07:00-20:00
Montana,Flathead,Unknown,130 6th St W,Rm A,Columbia Falls,MT,,(406) 758-5535,dpierson@flathead.mt.gov,(406) 758-5877,,11/3:07:00-20:00
Montana,Flathead,Unknown,418 2nd St E,,Whitefish,MT,,(406) 758-5535,dpierson@flathead.mt.gov,(406) 758-5877,,11/3:07:00-20:00
Montana,Flathead,Unknown,265 N Meridian,,Kalispell,MT,,(406) 758-5535,dpierson@flathead.mt.gov,(406) 758-5877,DRIVE THROUGH,11/3:07:00-20:00
Montana,Flathead,Unknown,40 11 St W,,Kalispell,MT,,(406) 758-5535,dpierson@flathead.mt.gov,(406) 758-5877,DRIVE THROUGH,11/3:07:00-20:00
Montana,Gallatin,Unknown,311 W Main ,Rm 210,Bozeman,MT,59715,(406) 582-3060,eric.semerad@gallatin.mt.gov,(406) 582-3068,,Monday:08:00-17:00;Tuesday:08:00-17:00;Wednesday:08:00-17:00;Thursday:08:00-17:00;Friday:08:00-17:00;11/3:07:00-20:00
Montana,Gallatin,Unknown,8081 Bridger Canyon Rd,,Bozeman,MT,,(406) 582-3060,eric.semerad@gallatin.mt.gov,(406) 582-3068,,11/3:07:00-20:00
Montana,Gallatin,Unknown,Tamarack & N Black,,Bozeman,MT,,(406) 582-3060,eric.semerad@gallatin.mt.gov,(406) 582-3068,,11/3:07:00-20:00
Montana,Gallatin,Unknown,2152 W Graf,,Bozeman,MT,,(406) 582-3060,eric.semerad@gallatin.mt.gov,(406) 582-3068,,11/3:07:00-20:00
Montana,Gallatin,Unknown,11th & Grant,,Bozeman,MT,,(406) 582-3060,eric.semerad@gallatin.mt.gov,(406) 582-3068,,11/3:07:00-20:00
Montana,Gallatin,Unknown,10 Geyser St,,West Yellowstone,MT,,(406) 582-3060,eric.semerad@gallatin.mt.gov,(406) 582-3068,,11/3:07:00-20:00
Montana,Gallatin,Unknown,561 Little Coyote Rd,,Big Sky,MT,,(406) 582-3060,eric.semerad@gallatin.mt.gov,(406) 582-3068,,11/3:07:00-20:00
Montana,Gallatin,Unknown,145 Mill St,,Gallatin Gateway,MT,,(406) 582-3060,eric.semerad@gallatin.mt.gov,(406) 582-3068,,11/3:07:00-20:00
Montana,Gallatin,Unknown,220 Spooner Rd,,Belgrade,MT,,(406) 582-3060,eric.semerad@gallatin.mt.gov,(406) 582-3068,,11/3:07:00-20:00
Montana,Gallatin,Unknown,101 River Rock Rd,,Belgrade,MT,,(406) 582-3060,eric.semerad@gallatin.mt.gov,(406) 582-3068,,11/3:07:00-20:00
Montana,Gallatin,Unknown,212 E Neal St,,Three Forks,MT,,(406) 582-3060,eric.semerad@gallatin.mt.gov,(406) 582-3068,,11/3:07:00-20:00
Montana,Gallatin,Unknown,8000 Churchill Rd,,Manhattan,MT,,(406) 582-3060,eric.semerad@gallatin.mt.gov,(406) 582-3068,,11/3:07:00-20:00
Montana,Gallatin,Unknown,200 W Fulton Ave,,Manhattan,MT,,(406) 582-3060,eric.semerad@gallatin.mt.gov,(406) 582-3068,,11/3:07:00-20:00
Montana,Garfield,Unknown,352 Leavitt Ave,,Jordan,MT,59337,(406) 557-2760,clerk@garfieldco.us,(406) 557-2765,,Monday:08:00-17:00;Tuesday:08:00-17:00;Wednesday:08:00-17:00;Thursday:08:00-17:00;Friday:08:00-17:00;11/3:07:00-20:00
Montana,Glacier,Unknown,512 E Main,,Cut Bank,MT,59427,(406) 873-3609,mbkennerly@glaciercountymt.org,(406) 873-3613,,Monday:08:00-17:00;Tuesday:08:00-17:00;Wednesday:08:00-17:00;Thursday:08:00-17:00;Friday:08:00-17:00;11/3:07:00-20:00
Montana,Glacier,Unknown,12 Starr School Rd,,Browning,MT,,(406) 873-3609,mbkennerly@glaciercountymt.org,(406) 873-3613,,"Monday:08:00-12:00,13:00-17:00;Tuesday:08:00-12:00,13:00-17:00;Wednesday:08:00-12:00,13:00-17:00;Thursday:08:00-12:00,13:00-17:00;Friday:08:00-12:00,13:00-17:00;11/3:07:00-20:00"
Montana,Golden Valley,Unknown,107 Kemp St,,Ryegate,MT,59074,(406) 568-2231,Clerk@goldenvalleymt.org,(406) 568-2428,,Monday:08:00-17:00;Tuesday:08:00-17:00;Wednesday:08:00-17:00;Thursday:08:00-17:00;Friday:08:00-17:00;11/3:07:00-20:00
Montana,Granite,Unknown,220 N Sansome St,,Philipsburg,MT,59858,(406) 859-3771,sgraham@co.granite.mt.us,(406) 859-3817,,Monday:08:00-17:00;Tuesday:08:00-17:00;Wednesday:08:00-17:00;Thursday:08:00-17:00;Friday:08:00-17:00;11/3:07:00-20:00
Montana,Hill,Unknown,315 4th St,,Havre,MT,59501,(406) 265-5481 x221,armstrongs@hillcounty.us,(406) 265-2445,,Monday:08:00-17:00;Tuesday:08:00-17:00;Wednesday:08:00-17:00;Thursday:08:00-17:00;Friday:08:00-17:00;11/3:07:00-20:00
Montana,Jefferson,Unknown,102 S Monroe St,,Boulder,MT,59632,(406) 225-4020,bramey@jeffersoncounty-mt.gov,(406) 225-4149,,"Monday:08:00-12:00,13:00-17:00;Tuesday:08:00-12:00,13:00-17:00;Wednesday:08:00-12:00,13:00-17:00;Thursday:08:00-12:00,13:00-17:00;Friday:08:00-12:00,13:00-17:00;11/3:07:00-20:00"
Montana,Judith Basin,Unknown,91 3rd St N,,Stanford,MT,59479,(406) 566-2277 x109,akelly@jbcounty.org,(406) 566-2211,,Monday:08:00-17:00;Tuesday:08:00-17:00;Wednesday:08:00-17:00;Thursday:08:00-17:00;Friday:08:00-17:00;11/3:07:00-20:00
Montana,Lake,Unknown,106 4th Ave E,Rm 121,Polson,MT,59860,(406) 883-7268,kharding@lakemt.gov,(406) 883-7230,,Monday:08:00-17:00;Tuesday:08:00-17:00;Wednesday:08:00-17:00;Thursday:08:00-17:00;Friday:08:00-17:00;11/3:07:00-20:00
Montana,Lewis and Clark,Unknown,316 N Park Ave,,Helena,MT,59623,(406) 447-8339,pdehart@lccountymt.gov,(406) 457-8598,,Monday:08:00-17:00;Tuesday:08:00-17:00;Wednesday:08:00-17:00;Thursday:08:00-17:00;Friday:08:00-17:00;11/3:07:00-20:00
Montana,Liberty,Unknown,111 1st St E,,Chester,MT,59522,(406) 759-5365,clerk@libertycountymt.gov,(406) 759-5395,,Monday:08:00-17:00;Tuesday:08:00-17:00;Wednesday:08:00-17:00;Thursday:08:00-17:00;Friday:08:00-17:00;11/3:07:00-20:00
Montana,Lincoln,Unknown,512 California,,Libby,MT,59923,(406) 283-2306,cnelson@libby.org,(406) 293-8577,,Monday:08:00-17:00;Tuesday:08:00-17:00;Wednesday:08:00-17:00;Thursday:08:00-17:00;Friday:08:00-17:00;11/3:08:00-20:00
Montana,Lincoln,Unknown,855 Highway 93 North,,Eureka,MT,,(406) 283-2306,cnelson@libby.org,(406) 293-8577,,Monday:08:00-17:00;Tuesday:08:00-17:00;Wednesday:08:00-17:00;Thursday:08:00-17:00;Friday:08:00-17:00;11/3:08:00-20:00
Montana,Lincoln,Unknown,301 E Kootenai,,Troy,MT,,(406) 283-2306,cnelson@libby.org,(406) 293-8577,,Monday:08:00-17:00;Tuesday:08:00-17:00;Wednesday:08:00-17:00;Thursday:08:00-17:00;Friday:08:00-17:00;11/3:08:00-20:00
Montana,Madison,Unknown,103 W Wallace,,Virginia City,MT,59755,(406) 843-4270,kmumme@madisoncountymt.gov,(406) 843-5264,,11/3:08:00-12:00;11/3:07:00-20:00
Montana,McCone,Unknown,1004 Ave C,,Circle,MT,59215,(406) 485-3505,clerk@midrivers.com,(406) 485-2689,,Monday:08:00-17:00;Tuesday:08:00-17:00;Wednesday:08:00-17:00;Thursday:08:00-17:00;Friday:08:00-17:00;11/3:07:00-20:00
Montana,Meagher,Unknown,15 W Main St,,White Sulphur Springs,MT,59645,(406) 547-3612 x2,pplachy@meagherco.net,(406) 547-3388,,Monday:08:00-16:30;Tuesday:08:00-16:30;Wednesday:08:00-16:30;Thursday:08:00-16:30;Friday:08:00-16:30;11/3:07:00-20:00
Montana,Mineral,Unknown,300 River St,,Superior,MT,59872,(406) 822-3520,kmclees@co.mineral.mt.us,(406) 822-3579,,Monday:08:00-17:00;Tuesday:08:00-17:00;Wednesday:08:00-17:00;Thursday:08:00-17:00;Friday:08:00-17:00;11/3:07:00-20:00
Montana,Missoula,Unknown,140 N Russell St,,Missoula,MT,59801,(406) 258-4751,electioninfo@missoulacounty.us,(406) 258-3913,,Monday:08:00-17:00;Tuesday:08:00-17:00;Wednesday:08:00-17:00;Thursday:08:00-17:00;Friday:08:00-17:00;11/3:07:00-20:00
Montana,Missoula,Unknown,1101 South Ave,,Missoula,MT,59801,(406) 258-4751,electioninfo@missoulacounty.us,(406) 258-3913,DRIVE THROUGH,11/3:07:00-20:00
Montana,Missoula,Unknown,9045 Hwy 200 E,,Bonner,MT,,(406) 258-4751,electioninfo@missoulacounty.us,(406) 258-3913,DRIVE THROUGH,11/3:07:00-20:00
Montana,Missoula,Unknown,1687 Marion St,,Frenchtown,MT,59834,(406) 258-4751,electioninfo@missoulacounty.us,(406) 258-3913,DRIVE THROUGH,11/3:07:00-20:00
Montana,Missoula,Unknown,200 School Lane,,Seeley Lake,MT,59868,(406) 258-4751,electioninfo@missoulacounty.us,(406) 258-3913,DRIVE THROUGH,11/3:07:00-20:00
Montana,Missoula,Unknown,11395 Hwy 93 S,,Lolo,MT,,(406) 258-4751,electioninfo@missoulacounty.us,(406) 258-3913,DRIVE THROUGH,11/3:07:00-20:00
Montana,Musselshell,Unknown,506 Main,,Roundup,MT,59072,(406) 323-1104,ctomassi@co.musselshell.mt.us,(406) 323-3303,,Monday:08:00-17:00;Tuesday:08:00-17:00;Wednesday:08:00-17:00;Thursday:08:00-17:00;Friday:08:00-17:00;11/3:07:00-20:00
Montana,Park,Unknown,414 E Callender St,,Livingston,MT,59047,(406) 222-4110,mreddington@parkcounty.org,(406) 222-4193,,Monday:08:00-17:00;Tuesday:08:00-17:00;Wednesday:08:00-17:00;Thursday:08:00-17:00;Friday:08:00-17:00;11/3:07:00-20:00
Montana,Petroleum,Unknown,302 E Main St,,Winnett,MT,59087,(406) 429-5311,jtucek@petroleumcountymt.org,(406) 429-6328,,Monday:08:00-17:00;Tuesday:08:00-17:00;Wednesday:08:00-17:00;Thursday:08:00-17:00;Friday:08:00-17:00;11/3:07:00-20:00
Montana,Phillips,Unknown,314 S 2nd Ave W,,Malta,MT,59538,(406) 654-2423,llabrie@mt.gov,(406) 654-2429,,Monday:08:00-17:00;Tuesday:08:00-17:00;Wednesday:08:00-17:00;Thursday:08:00-17:00;Friday:08:00-17:00;11/3:07:00-20:00
Montana,Pondera,Unknown,20 4th Ave SW,,Conrad,MT,59425,(406) 271-4000,ponderaclerk@3rivers.net,(406) 271-4070,,Monday:08:00-17:00;Tuesday:08:00-17:00;Wednesday:08:00-17:00;Thursday:08:00-17:00;Friday:08:00-17:00;11/3:07:00-20:00
Montana,Powder River,Unknown,119 N Park Ave,,Broadus,MT,59317,(406) 436-2361,cgatlin@prco.mt.gov,(406) 436-2151,,"Monday:08:00-12:00,13:00-17:00;Tuesday:08:00-12:00,13:00-17:00;Wednesday:08:00-12:00,13:00-17:00;Thursday:08:00-12:00,13:00-17:00;Friday:08:00-12:00,13:00-17:00;11/3:07:00-20:00"
Montana,Powell,Unknown,409 Missouri,Ste 203,Deer Lodge,MT,59722,(406) 846-9786,jwalker@powellcountymt.gov,(406) 846-3891,,Monday:08:00-17:00;Tuesday:08:00-17:00;Wednesday:08:00-17:00;Thursday:08:00-17:00;Friday:08:00-17:00;11/3:07:00-20:00
Montana,Prairie,Unknown,217 W Park St,,Terry,MT,59349,(406) 635-5575,cr@prairiecounty.org,(406) 635-5576,,"Monday:08:00-12:00,13:00-17:00;Tuesday:08:00-12:00,13:00-17:00;Wednesday:08:00-12:00,13:00-17:00;Thursday:08:00-12:00,13:00-17:00;Friday:08:00-12:00,13:00-17:00;11/3:07:00-20:00"
Montana,Ravalli,Unknown,215 S 4th St,Ste C,Hamilton,MT,59840,(406) 375-6550,rplettenberg@rc.mt.gov,(406) 375-6554,,"Monday:08:00-12:00,13:00-17:00;Tuesday:08:00-12:00,13:00-17:00;Wednesday:08:00-12:00,13:00-17:00;Thursday:08:00-12:00,13:00-17:00;Friday:08:00-12:00,13:00-17:00;11/3:07:00-20:00"
Montana,Ravalli,Unknown,5602 Old Highway 93,,Florence,MT,59833,(406) 375-6550,rplettenberg@rc.mt.gov,(406) 375-6554,DRIVE THROUGH,11/3:07:00-20:00
Montana,Richland,Unknown,201 W Main,,Sidney,MT,59270,(406) 433-1708,sverhasselt@richland.org,(406) 433-3731,,Monday:08:00-17:00;Tuesday:08:00-17:00;Wednesday:08:00-17:00;Thursday:08:00-17:00;Friday:08:00-17:00;11/3:07:00-20:00
Montana,Roosevelt,Unknown,400 2nd Ave S,Ste 105,Wolf Point,MT,59201,(406) 653-6250,chansen@rooseveltcounty.org,(406) 653-6289,,Monday:08:00-17:00;Tuesday:08:00-17:00;Wednesday:08:00-17:00;Thursday:08:00-17:00;Friday:08:00-17:00;11/3:07:00-20:00
Montana,Rosebud,Unknown,1200 Main S,,Forsyth,MT,59327,(406) 346-7318,jduffield@rosebudcountymt.com,(406) 346-7551,,Monday:08:00-17:00;Tuesday:08:00-17:00;Wednesday:08:00-17:00;Thursday:08:00-17:00;Friday:08:00-17:00;11/3:07:00-20:00
Montana,Sanders,Unknown,1111 Main St W,,Thompson Falls,MT,59873,(406) 827-6922,nscribner@co.sanders.mt.us,(406) 827-6970,,Monday:08:00-17:00;Tuesday:08:00-17:00;Wednesday:08:00-17:00;Thursday:08:00-17:00;Friday:08:00-17:00;11/3:07:00-20:00
Montana,Sanders,Unknown,35 3rd St,,Dixon,MT,,(406) 827-6922,nscribner@co.sanders.mt.us,(406) 827-6970,,11/3:07:00-18:00
Montana,Sanders,Unknown,170 Railroad Ave,,Heron,MT,,(406) 827-6922,nscribner@co.sanders.mt.us,(406) 827-6970,,11/3:07:00-18:00
Montana,Sanders,Unknown,101 Main St,,Hot Springs,MT,,(406) 827-6922,nscribner@co.sanders.mt.us,(406) 827-6970,,11/3:07:00-18:00
Montana,Sanders,Unknown,311 Noxon Ave,,Noxon,MT,,(406) 827-6922,nscribner@co.sanders.mt.us,(406) 827-6970,,11/3:07:00-18:00
Montana,Sanders,Unknown,205 W Meany St,,Plains,MT,,(406) 827-6922,nscribner@co.sanders.mt.us,(406) 827-6970,,11/3:07:00-18:00
Montana,Sanders,Unknown,4 School Ln,,Trout Creek,MT,,(406) 827-6922,nscribner@co.sanders.mt.us,(406) 827-6970,,11/3:07:00-18:00
Montana,Sanders,Unknown,410 Golf St,,Thompson Falls,MT,,(406) 827-6922,nscribner@co.sanders.mt.us,(406) 827-6970,,11/3:07:00-18:00
Montana,Sheridan,Unknown,100 W Laurel Ave,,Plentywood,MT,59254,(406) 765-3403,record_supt@co.sheridan.mt.us,(406) 765-2609,,Monday:08:00-17:00;Tuesday:08:00-17:00;Wednesday:08:00-17:00;Thursday:08:00-17:00;Friday:08:00-17:00;11/3:07:00-20:00
Montana,Silver Bow,Unknown,155 W Granite ,Rm 208,Butte,MT,59701,(406) 497-6342,shollis@bsb.mt.gov,(406) 497-6328,,Monday:08:00-17:00;Tuesday:08:00-17:00;Wednesday:08:00-17:00;Thursday:08:00-17:00;Friday:08:00-17:00;11/3:07:00-20:00
Montana,Silver Bow,Unknown,1340 Harrison Ave,,Butte,MT,,(406) 497-6342,shollis@bsb.mt.gov,(406) 497-6328,,11/3:07:00-20:00
Montana,Stillwater,Unknown,400 E 3rd Ave N,,Columbus,MT,59019,(406) 322-8000,hstadel@stillwatercountymt.gov,(406) 322-8069,,Monday:08:00-17:00;Tuesday:08:00-17:00;Wednesday:08:00-17:00;Thursday:08:00-17:00;Friday:08:00-17:00;11/3:07:00-20:00
Montana,Sweet Grass,Unknown,115 W 5th Ave N,,Big Timber,MT,59011,(406) 932-5152,sgclerk1@itstriangle.com,(406) 932-3026,,Monday:08:00-17:00;Tuesday:08:00-17:00;Wednesday:08:00-17:00;Thursday:08:00-17:00;Friday:08:00-17:00;11/3:07:00-20:00
Montana,Teton,Unknown,1 Main Ave S,,Choteau,MT,59422,(406) 466-2693,pjaconetty@tetoncountymt.gov,(406) 466-3244,,Monday:08:00-17:00;Tuesday:08:00-17:00;Wednesday:08:00-17:00;Thursday:08:00-17:00;Friday:08:00-17:00;11/3:07:00-20:00
Montana,Toole,Unknown,226 1st St S,,Shelby,MT,59474,(406) 424-8300,tnelson@toolecountymt.gov,(406) 424-8301,,Monday:08:00-17:00;Tuesday:08:00-17:00;Wednesday:08:00-17:00;Thursday:08:00-17:00;Friday:08:00-17:00;11/3:07:00-20:00
Montana,Treasure,Unknown,307 Rapelje Ave,,Hysham,MT,59038,(406) 342-5547,msears@treasurecountymt.com,(406) 342-5547,,Monday:08:00-17:00;Tuesday:08:00-17:00;Wednesday:08:00-17:00;Thursday:08:00-17:00;Friday:08:00-17:00;11/3:08:00-20:00
Montana,Valley,Unknown,501 Court Sq ,No 2,Glasgow,MT,59230,(406) 228-6226,taberg@valleycountymt.gov,(406) 228-9027,,Monday:08:00-17:00;Tuesday:08:00-17:00;Wednesday:08:00-17:00;Thursday:08:00-17:00;Friday:08:00-17:00;11/3:07:00-20:00
Montana,Wheatland,Unknown,201A Ave NW,,Harlowton,MT,59036,(406) 632-4891,wccr@itstriangle.com,(406) 632-4880,,"Monday:08:00-12:00,13:00-17:00;Tuesday:08:00-12:00,13:00-17:00;Wednesday:08:00-12:00,13:00-17:00;Thursday:08:00-12:00,13:00-17:00;Friday:08:00-12:00,13:00-17:00;11/3:07:00-20:00"
Montana,Wibaux,Unknown,203 Wibaux St S,,Wibaux,MT,59353,(406) 796-2481,recorder@wibauxcounty.net,(406) 796-2625,,Monday:08:00-17:00;Tuesday:08:00-17:00;Wednesday:08:00-17:00;Thursday:08:00-17:00;Friday:08:00-17:00;11/3:07:00-20:00
Montana,Yellowstone,Unknown,217 N 27th,Rm 101,Billings,MT,59107,(406) 256-2740,brutherford@co.yellowstone.mt.gov,(406) 254-7940,,Monday:08:00-17:00;Tuesday:08:00-17:00;Wednesday:08:00-17:00;Thursday:08:00-17:00;Friday:08:00-17:00;11/3:07:00-20:00
Montana,Yellowstone,Unknown,308 6th Ave N,,Billings,MT,,(406) 256-2740,brutherford@co.yellowstone.mt.gov,(406) 254-7940,,11/3:07:00-20:00
Montana,Yellowstone,Unknown,150 Cooperative Way,,Huntley,MT,,(406) 256-2740,brutherford@co.yellowstone.mt.gov,(406) 254-7940,,11/3:07:00-20:00
Montana,Yellowstone,Unknown,203 E 8th,,Laurel,MT,,(406) 256-2740,brutherford@co.yellowstone.mt.gov,(406) 254-7940,,11/3:07:00-20:00