town,county,mail_address1,mail_city,mail_state,mail_zip,address1,address2,city,state_2,zip,phone,phone2,phone3,fax,email,hours
Fair Haven,Rutland,3 North Park Place,Fair Haven,VT,05743,3 North Park Place,,Fair Haven,VT,05743,802 -265-3610 x.4,,,802 -265-3176,sdclerk@comcast.net,M W Th 7:30-4:30; T 7:30-7
Bradford,Orange,P.O. Box 339,Bradford,VT,05033,172 North Main Street,,Bradford,VT,05033,802 222-4727,,,802 222-3520,clerk@bradford-vt.us,M-Th 7-3:30; F 8-12
Marlboro,Windham,P.O. Box E,Marlboro,VT,05344,510 South Road,,Marlboro,VT,05344,802 254-2181,,,802 257-2447,marlborotownclerk@gmail.com,M W Th 9-4  
Colchester,Chittenden,781 Blakely Road,Colchester,VT,05446,781 Blakely Road,,Colchester,VT,05446,802 264-5520,,,802 264-5503,jgraeter@colchestervt.gov,M-F 7:30-12
Bennington,Bennington,205 South Street,Bennington,VT,05201,205 South Street,,Bennington,VT,05201,802 442-1043,,,802 442-1068,cbarbeau@benningtonvt.org,M-F 8-5 & The Day Before Any Election 8-12
Woodford,Bennington,1391 VT Route 9,Woodford,VT,05201,1391 VT Route 9,,Woodford,VT,05201,802 442-4895,,,802 442-4816,woodfordvt@comcast.net,M W Th 8:30-2; T 11-5
Woodbury,Washington,P.O. Box 10,Woodbury,VT,05681,1672 Route 14,,Woodbury,VT,05681,802 456 7051,,,802 456 8834,woodburyclerk@comcast.net,M-Th 9-1
Dover,Windham,P.O. Box 527,West Dover,VT,05356,102 Route 100,,West Dover,VT,05356,802-464-5100 x 2,,,802 464 8721,townclerk@doververmont.com,M-F 9-5
Maidstone,Essex,P.O. Box 118,Guildhall,VT,05905,508 Vermont Route 102,,Maidstone,VT,05905,802 676-3210,,,802 676-3607,maidstonetownclerk@gmail.com ,M Th 9-3
Vershire,Orange,6894 VT RT 113,Vershire,VT,05079,6894 VT RT 113,,Vershire,VT,05079,802-685-2227,,,802 685 1113,clerk-treasurer@vershirevt.org,T W Th 8:30-12 & 1-4:30
Lunenburg,Essex,P.O. Box 53,Lunenburg,VT,05906,9 West Main Street,,Lunenburg,VT,05906,802 892 5959,,,802 892 5100,lunenburg01@live.com,M-F 8:30-12 & 1:30-3
Middlesex,Washington,5 Church Street,Middlesex,VT,05602,5 Church Street,,Middlesex,VT,05602,802-223-5915,,,802-223-1298,mdxclerk@comcast.net,M-Th 8:30-4:30
East Montpelier,Washington,P.O. Box 157,E Montpelier,VT,05651,40 Kelton Road,,East Montpelier,VT,05651,802-223-3313 x201,,,802-223-4467,clerk@eastmontpeliervt.org,M-Th 9-5; F 9-12
Montpelier,Washington,39 Main Street - City Hall,Montpelier,VT,05602,39 Main Street,,Montpelier,VT,05602,802-223-9500,,,802-223-9523,jodum@montpelier-vt.org,M-F 8-4:30 & Saturdays before elections 10-2
Cavendish,Windsor,P.O. Box 126,Cavendish,VT,05142,37 High St,,Cavendish,VT,05142,802-226-7291, 802-226-7292,,802-226-7290,d.mcnamara@comcast.net,M-F 9-4:30
Ludlow,Windsor,P.O. Box 307,Ludlow,VT,05149,37 Depot Street,,Ludlow,VT,05149,802-228-3232,,,802-228-8399,treasure@ludlow.vt.us,M-F 8:30-4:30
Worcester,Washington,P.O. Box 161,Worcester,VT,05682,20 Worcester Village Road,,Worcester,VT,05682,802-223-6942,,,802-229-5216,worcestertclerk@comcast.net,M 3-7; T-Th 8-4; F 7-10am & after 10 by appt. 
Berlin,Washington,108 Shed Road,Berlin,VT,05602,108 Shed Road,,Berlin,VT,05602,802-229-9298,,,802-229-9530,townclerk@berlinvt.org,M-Th 8:30-3:30
Bethel,Windsor,P.O. Box 404,Bethel,VT,05032,134 South Main Street,,Bethel,VT,05032,802-234-9722,,,802-234-6840,betheltownclerk@comcast.net,M Th 8-12:30 & 1-4; T W F 8-1
Ira ,Rutland,53 West Road,Ira,VT,05777,53 West Road,,Ira  ,VT,05777,802-235-2745,,,802-235-1045,iraclerk@vermontel.com,T 2-6; T 8:30-2:30
Middletown Springs,Rutland,P.O. Box 1232,Middletown Springs,VT,05757,10 Park Avenue,,Middletown Springs,VT,05757,802-235-2220,,,802-235-2066,middletown@vermontel.net,M T Th F 8-1; T Th 4-7pm
Waterbury,Washington,"28 North Main Street, Suite. 1",Waterbury,VT,05676,"28 North Main Street, Suite. 1",,Waterbury,VT,05676,802-244-8447,,,802-244-1014,clawrence@waterburyvt.com,M-F 8-4:30
Duxbury,Washington,5421 VT Route 100,Duxbury,VT,05676,5421 VT Route 100,,Duxbury,VT,05676,802-244-6660,,,802-244-5442,duxtc@myfairpoint.net,T-F 7:30-3:30
Brandon,Rutland,49 Center Street,Brandon,VT,05733,49 Center Street,,Brandon,VT,05733,802-247-3635,,,802-247-5481,sgage@townofbrandon.com,M-F 8-4
Leicester,Addison,44 Schoolhouse Road,Leicester,VT,05733,44 Schoolhouse Road,,Leicester,VT,05733,802-247-5961 x 3,,,802-247-6501,leicestervt@comcast.net,M T Th 9-2
Goshen,Addison,50 Carlisle Hill Road,Goshen,VT,05733,50 Carlisle Hill Road,,Goshen,VT,05733,802-247-6455,,,802-247-6740,townclerk@goshenvt.org,T 9-1  
Stowe,Lamoille,P.O. Box 730,Stowe,VT,05672,67 Main Street,,Stowe,VT,05672,802-253-6133,,,802-253-6143,lwalker@stowevt.gov,M-F 8-4:30
Vernon,Windham,567 Governor Hunt Road,Vernon,VT,05354,567 Governor Hunt Road,,Vernon,VT,05354,802-257-0292,,,802-254-3561,clerk@vernonvt.org,M-Th 7-5
Brattleboro,Windham,"230 Main Street, Suite 108",Brattleboro,VT,05301,"230 Main Street, Suite 108",,Brattleboro,VT,05301,802-251-8157,,,802-257-2312,townclerk@brattleboro.org,M-F 8:30-5
Guilford,Windham,236 School Road,Guilford,VT,05301,236 School Road,,Guilford,VT,05301,802-254-6857 x 101,,,802-257-5764,pennymarine@guilfordvt.net,"M 7am-6, T-Th 7-5"
Dummerston,Windham,1523 Middle Road,E. Dummerston,VT,05346,1523 Middle Road,,Dummerston,VT,05346,802-257-1496,,,802-2574671,townclerk@dummerston.org,M T Th F 9-3; W 11-5
Mount Holly,Rutland,P.O. Box 248,Mount Holly,VT,05758,50 School St,,Mount Holly,VT,05758,802-259-2391,,,802-259-2635,mthollytc@yahoo.com,M-Th 8:30-4
Baltimore,Windsor,1902 Baltimore Road,Baltimore,VT,05143,1902 Baltimore Road,,Baltimore,VT,05143,802-263-5274,,,802-263-5274,baltimorevt@tds.net,W 4-6pm; Th 9-11
West Haven,Rutland,2919 Main Road,West Haven,VT,05743,2919 Main Road,,West Haven,VT,05743,802-265-4880,,,802-265-3828,townofwesthaven@myfairpoint.net,M W 1-3:30; and by appt.
Canaan,Essex,P.O. Box 159,Canaan,VT,05903,318 Christian Hill,,Canaan,VT,05903,802-266-3370,,,802-266-8253,nlabrecque@canaanschools.org,M-Th 8-4; F 8-3
Hubbardton,Rutland,1831 Monument Hill Road.,Castleton,VT,05735,1831 Monument Hill Road.,,Hubbardton,VT,05735,802-273-2951,,,802-273-3729,clrkhubb@shoreham.net,M W Th F 9-2
Brookfield,Orange,P.O. Box 463,Brookfield,VT,05036,40 Ralph Road,,Brookfield,VT,05036,802-276-3352,,,802-276-3926,townclerk@brookfieldvt.org,T-Th 8:30-4:30
Lemington,Essex,"2549 River Road, VT 102",Lemington,VT,05903,"2549 River Road, Vt 102",,Lemington,VT,05903,802-277-4814,,,802-277-4091,lemitown@myfairpoint.net,T 1:30-5:30
Franklin,Franklin,P.O. Box 82,Franklin,VT,05457,5167 Main St,,Franklin,VT,05457,802-285-2101,,,802-285-2181,townoff@franklinvt.net,M T F 8-4; Th 8-6
Poultney,Rutland,"9 Main Street, Suite 2",Poultney,VT,05764,"9 Main Street, Suite 2",,Poultney,VT,05764,802-287-5761,,,802-287-5110,poultneytownclerk@comcast.net,M-F 8:30-12:30 & 1:30-4 
Mount Tabor,Rutland,P.O. Box 245,Mount Tabor,VT,05739,522 Brooklyn Road,,Mount Tabor,VT,05739,802-293-5282,,,802-293-5287,mttabor@vermontel.net,T W 9-12
Danby,Rutland,130 Brook Road,Danby,VT,05739,130 Brook Road,,Danby,VT,05739,802-293-5136,,,802-293-5311,danbytownclerk@vermontel.net,M-Th 9-12 and 1-3
Hartford,Windsor,171 Bridge Street,White River Jct.,VT,05001,171 Bridge Street,,White River Jct,VT,05001,802-295-2785,,,802-295-6382,loneil@hartford-vt.org,M-F 8-5 & The Day Before Any Election 8-12
Winhall,Bennington,115 VT Route. 30,Bondville,VT,05340,115 VT Route. 30,,Bondville,VT,05340,802-297-2122,,,802-297-2582,winclerk@comcast.net,M-Th 7-1 
Pawlet,Rutland,P.O. Box 128,Pawlet,VT,05761,122 School Street,,Pawlet,VT,05761,802-325-3309,,,802-325-6109,pawletclerk@vermontel.net,M-W 9-4; Th 9-12
Montgomery,Franklin,P.O. Box 356,Montgomery Center,VT,05471,86 Mountain Road,,Montgomery Center,VT,05471,802-326-4719,,,802-326-5053,municipalclerkmontgomery@gmail.com,M 9-12 & 1-6; T-Th 9-3; F 9-1
Granby,Essex,P.O Box 56,Granby,VT,05840,9005 Granby Road,,Granby,VT,05840,802-328-3611,,,802-328-2200,townofgranby@myfairpoint.net,By Appt.
Richmond,Chittenden,P.O. Box 285,Richmond,VT,05477-0285,"203 Bridge Street, 2nd Floor",,Richmond,VT,05477,802-434-2221,,,802-329-2011,lparent@richmondvt.gov,M 8-5; T-Th 8-4; F 8-12 & The day before elections 8-12
Moretown,Washington,79 School Street,Moretown,VT,05660,79 School Street,,Moretown,VT,05660,802-882-8218,,,802-329-2221,townclerk@moretownvt.net,M-F 7-2:45
Fairlee,Orange,P.O. Box 95,Fairlee,VT,05045,75 Town Common Road,,Fairlee,VT,05045,802-333-4363 x1,,,802-333-9214,townclerk@fairleevt.org,M-Th 8:30-3:30; F 9-12 
West Fairlee,Orange,870 Rte. 113,West Fairlee,VT,05083,"870 Unit#5, VT Route. 113",,West Fairlee,VT,05083,802-333-9696,,,802-333-9611,westfairleetc@hotmail.com,T-Th 9:30-2:30
Newport City,Orleans,222 Main St,Newport,VT,05855,222 Main St,,Newport,VT,05855,802-334-2112,,,802-334-5632,james.johnson.clerk@newportvermont.org,M-F 8-4:30
Newport Town,Orleans,P.O. Box 85,Newport Center,VT,05857,102 Vance Hill Road,,Newport Center,VT,05857,802-334-6442,,,802-334-6442,nctownclerk@comcast.net,M-Th 7-4:30
Salisbury,Addison,P.O.Box 66,Salisbury,VT,05769,25 Schoolhouse Road,,Salisbury,VT,05769,802-352-4228,,,802-352-9832,town.clerk@comcast.net,T 9-3; Th 11-6
Manchester,Bennington,P.O. Box 830,Manchester Center,VT,05255,40 Jeff Williams Way,,Manchester Center,VT,05255,802-362-1313 x1,,,802-362-1314,a.sheldon@manchester-vt.gov,M-F 8-4:30 & The day before elections 8-2
Dorset,Bennington,P.O. Box 24,East Dorset,VT,05253,112 Mad Tom Road,,East Dorset,VT,05253,802-362-1178 x 2,,,802-362-5156,dorsetclerk@gmail.com,M-F 8-4 & The day before elections 8-12 
Brookline,Windham,P.O. Box 403,Brookline,VT,05345,734 Grassy Brook Road,,Brookline,VT,05345,802-365-4648,,,802-365-4092,brook763@comcast.net,T Th 9-2
Townshend,Windham,P.O. Box 223,Townshend,VT,05353,2006 VT route 30,,Townshend,VT,05353,802-365-7300,,,802-365-7309,townshendtownclerk@gmail.com,M T W F 9-4
Newfane,Windham,P.O. Box 36,Newfane,VT,05345,555 VT Route 30,,Newfane,VT,05345,802-365-7772 ,,,802-365-7692,tclerknewfane@newfanevt.com,M-Th 8-6 & The day before elections 8-12
Burke,Caledonia,212 School St,West Burke,,5871,212 School St,,West Burke,,5871,802-467-3717,,,802-367-8623,burke@burkevermont.org,M-F 8-4
Halifax,Windham,P.O. Box 127,W. Halifax,VT,05358,246 Branch Road,,W. Halifax,VT,05358,802-368-7390,,,802-368-7390,halifax@myfairpoint.net,M T F 8-3; S 9-12
Whitingham,Windham,P.O. Box 529,Jacksonville,VT,05342,2948 Vermont Route 100,,Jacksonville,VT,05342,802-368-7887,,,802-368-7519,whitinghamtownclerk@yahoo.com,M- F 9-2; W 5-7
North Hero,Grand Isle,P.O. Box 38,North Hero,VT,05474,6441 US RT 2,,North Hero,VT,05474,802-372-6926,,,802-372-3806,townclerk@northherovt.com,"M T Th 8-4:30, W F S 8-12"
South Hero,Grand Isle,P.O. Box 175,South Hero,VT,05486-0175,333 Route 2,,South Hero,VT,05486-0175,802-372-5552,,,802-372-3809,townclerk@southherovt.org,M-W 8:30-12 and 1-4:30; Th 8:30-12 and 1-5
Grand Isle,Grand Isle,P.O. Box 49,Grand Isle,VT,05458,9 Hyde Road,,Grand Isle,VT,05458,802-372-8830,,,802-372-8815,grandislevtclerk@gmail.com,M-F 8:30-3:30; T 5-7; Sat 10-12
Arlington,Bennington,P.O. Box 304,Arlington,VT,05250,3828 VT Route 7A,,Arlington,VT,05250,802-375-2332,,,802-375-2332,Robin.Wilcox@arlingtonvermont.org,M-F 9-2
Sandgate,Bennington,3266 Sandgate Road,Sandgate,VT,05250,3266 Sandgate Road,,Sandgate,VT,05250,802-375-9075,,,802-375-8350,sandgateclerk2@outlook.com,M W TH  9:30-12:30; F 8:30-11:30
Putney,Windham,P.O. Box 233,Putney,VT,05346,127 Main Street,,Putney,VT,05346,802-387-5862x13,,,802-387-4708,clerk@putneyvt.org,M T Th F  9-4; W 9-7
Ripton,Addison,P.O. Box 10,Ripton,VT,05766,1311 Route 125,,Ripton,VT,05766,802-388-2266,,,802-388-0012,townclerk@riptonvt.org or ajdickson@riptonvt.org,M 2-6; T Th 9-1 & The day before elections 2-4
Middlebury,Addison,77 Main Street,Middlebury,VT,05753,77 Main Street,,Middlebury,VT,05753,802-388-8100 x211,802-388-8100 x212,802-388-8100 x213,802-388-4261,awebster@townofmiddlebury.org,M-Th 7:30-5:30 & Closed the Monday before elections
Rupert,Bennington,P.O. Box 140,West Rupert,VT,05776,187 East Street,,West Rupert,VT,05776,802-394-7728,,,802-394-2524,rupert187@myfairpoint.net,M 11-7; T W 12-5; Th 8:30-3:30
Killington,Rutland,P.O. Box 429,Killington,VT,05751,2706 River Road,,Killington,VT,05751,802-422-3243,,,802-422-3030,lucrecia@killingtontown.com,M-F 9-3; Monday Before Any Election 9-12
Readsboro,Bennington,P.O. Box 187,Readsboro,VT,05350,301 Phelps Lane,,Readsboro,VT,05350,802-423-5405,,,802-423-5423,clerk@readsborovt.org,M T Th F 8-3
Charlotte,Chittenden,P.O. Box 119,Charlotte,VT,05445,159 Ferry Road,,Charlotte,VT,05445,802-425-3071,,,802-425-4713,mary@townofcharlotte.com,M-F 8-4
Marshfield,Washington,"122 School Street, Room 1",Marshfield,VT,05658,"122 School Street, Room 1",,Marshfield,VT,05658,802-426-3305,,,802-426-3045,clerk@town.marshfield.vt.us,T-F 8-12 & 12:30-4 & The day before elections 8-12
Williamstown,Orange,P.O. Box 646,Williamstown,VT,05679,2470 VT RT 14,,Williamstown,VT,05679,802-433-5455,,,802-433-2160,clerk@williamstownvt.org,M Th 8-4; F 8-2
Bolton,Chittenden,3045 Theodore Roosevelt Highway,Waterbury,VT,05676,3045 Theodore Roosevelt Highway,,Bolton,VT,05676,802-434-5075    ,,,802-434-6404,clerkbolton@gmavt.net,M-Th 8-4 & Closed the Monday before elections
Hartland,Windsor,P.O. Box 349,Hartland,VT,05048,1 Quechee Road,,Hartland,VT,05048,802-436-2444,,,802-436-2464,cjenne@hartlandvt.org,M-F 8-4 & Closed the day before elections
West Rutland,Rutland,35 Marble Street,West Rutland,VT,05777,35 Marble Street,,West Rutland,VT,05777,802-438-2204,,,802-438-5133,cwener@westrutlandvt.org,M-Th 9-4 & Closed the day before elections
Topsham,Orange,P.O. Box 69,Topsham,VT,05076,6 Harts Road,,Topsham,VT,05076,802-439-5505,,,802-439-5505,topsham@tops-tele.com,M 1-6; T Th F 9-4
Corinth,Orange,P.O. Box 461,Corinth,VT,05039,1387 Cookeville Road,,Corinth,VT,05039,802-439-5850,,,802-439-9104,townclerk@corinthvt.org,"M 8-4; T 8-6, Th 9-3"
Shaftsbury,Bennington,P.O. Box 409,Shaftsbury,VT,05262,61 Buck Hill Road,,Shaftsbury,VT,05262,802-442-4038x1,,,802-442-0955,townclerk@shaftsburyvt.gov,M 9-3 & 5-7; T-Th 9-4; F 9-12 & The day before elections 9-12
Tinmouth,Rutland,515 North End Road,Tinmouth,VT,05773,9 Mountain View Road,,Tinmouth,VT,05773,802-446-2498,,,802-446-2498,tinmouthtown@vermontel.net,M Th 8-12 & 1-4; Sat. 9-12
Wallingford,Rutland,75 School Street,Wallingford,VT,05773,75 School Street,,Wallingford,VT,05773,802-446-2336,,,802-446-3174,townclerk@wallingfordvt.com,M-Th 8-4:30
Lincoln,Addison,62 Quaker Street,Lincoln,VT,05443,62 Quaker Street,,Lincoln,VT,05443,802-453-2980,,,802-453-2975,clerk@lincolnvermont.org,M T W Th 8-2; W 4-7 p.m.
Bristol,Addison,P.O. Box 249,Bristol,VT,05443,1 South Street,,Bristol,VT,05443,802-453-2410,,,802-453-5188,clerk@bristolvt.org,M-F 8-4:30
Monkton,Addison,P.O. Box 12,Monkton,VT,05469,280 Monkton Ridge,,N. Ferrisburgh,VT,05473,802-453 3800,,,802-453-5612,townclerk@monktonvt.com,M F 8-1; T Th 8-1 & 4-7
Starksboro,Addison,P.O. Box 91,Starksboro,VT,05487,2849 Vt Route 116,,Starksboro,VT,05487,802-453-2639,,,802-453-7293,townclerk@starksborovt.org,M-Th 8:30-4:30
New Haven,Addison,78 North Street,New Haven,VT,05472,78 North Street,,New Haven,VT,05472,802-453-3516,,,802-453-7552,newhavenclerk@gmavt.net,M-Th 8:30-4 
Plainfield,Washington,P.O. Box 217,Plainfield,VT,05667,149 Main Street,,Plainfield,VT,05667,802-454-8461,,,802-454-8467,plainfieldtc@gmail.com,M W F 7:30-12 and 12:30-4 & The day before elections 7:30-12
Woodstock,Windsor,31 The Green,Woodstock,VT,05091,31 The Green,,Woodstock,VT,05091,802-457-3611,,,802-457-2329,clerk@townofwoodstock.org,M-F 8-12 and 1-4:30 & Closed the day before elections
Pomfret,Windsor,5218 Pomfret Road,North Pomfret,VT,05053,5218 Pomfret Road,,North Pomfret,VT,05053,802-457-3861,,,802-457-8180,clerk@pomfretvt.us,M W F 8:30-2:30
Proctor,Rutland,52 Main Street,Proctor,VT,05765,52 Main Street,,Proctor,VT,05765,802-459-3333,,,802-459-2356,proctor_tc@comcast.net,M-F 8-4
Cornwall,Addison,2629 Route 30,Cornwall,VT,05753,2629 Route 30,,Cornwall,VT,05753,802-462-2775,,,802-462-2606,cornwallvt@shoreham.net,T-F 9-5
Rockingham,Windham,P.O. Box 339,Bellows Falls,VT,05101,7 Village Square,,Bellows Falls,VT,05101,802-463-4336 x1102,,,802-463-1228,clerk@rockbf.org,M 7:30-6:30; T Th 7:30-4:30; W 7:30-5; F 7:30-11 & The day before elections 7:30-12
Searsburg,Bennington,P.O. Box 157,Wilmington,VT,05363,18 Town Garage Road,,Searsburg,VT,05363,802-464-8081,,,802-464-8081,searsburgtc@gmail.com,M 8-12; T F 8-8
Sutton,Caledonia,167 Underpass Road,Sutton,VT,05867,167 Underpass Road,,Sutton,VT,05867,802.467.3377,,,802-467-1052,suttontownclerk@yahoo.com,M-Th 7:30-4
Newark,Caledonia,1336 Newark Street,Newark,VT,05871,1336 Newark Street,,Newark,VT,05871,802-467-3336,,,802-467-3336,newarktownclerk@gmail.com,T-Th 8-3
Castleton,Rutland,P.O. Box 727,Castleton,VT,05735,263 Route. 30 North,,Castleton,VT,05735,802-468-5319 x201,,,802-468-5482,casclerk@shoreham.net,M-W 8-12:30 & 1-4:30; Th 10-12:30 & 1-5:30; F 8-12
Hardwick,Caledonia,P.O. Box 523,Hardwick,VT,05843,20 Church Street,,Hardwick,VT,05843,802-472-5971,,,802-472-3108,alberta.miller@hardwickvt.org,M-F 8-4
Panton,Addison,3176 Jersey Street,Panton,VT,05491,3176 Jersey Street,,Panton,VT,05491,802-475-2333,,,802-475-2785,clerk-treasurer@pantonvt.us,M-Th 8-5; F by appt.
Barre City,Washington,P.O. Box 418,Barre,VT,05641,"6 N. Main Street, Suite 6",,Barre,VT,05641,802-476-0242,,,802-476-0264,cdawes@barrecity.org,M-F 7:30-4:30
Orange,Orange,392 US RT 302,Orange,VT,05649,392 US RT 302,,Orange,VT,05649,802-479-2673,,,802-479-2673,aeastman@orangevt.org,M T W F 8-12 & 1-4; Th 8-12 &1-6
Barre Town,Washington,P.O. Box 124,Websterville,VT,05678,149 Websterville Road,,Websterville,VT,05678,802-479-9391,,,802-479-9332,dkelty@barretown.org,M-F 8-4:30
Hinesburg,Chittenden,10632 Route. 116,Hinesburg,VT,05461,10632 Route. 116,,Hinesburg,VT,05461,802-482-2281 x. 223,,,802-482-5404,mross@hinesburg.org,M-F 8-4 & Closed the day before elections
Saint George,Chittenden,21 Barber Road,St. George,VT,05495,21 Barber Road,,St George,VT,05495,802-482-5272,,,802-482-5548,stgeorgevtclerk@comcast.net,M-W 8-2; Th 4:30-6:30 
Chittenden,Rutland,P.O. Box 89,Chittenden,VT,05737,260 Chittenden Road,,Chittenden,VT,05737,802-483-6647,,,802-483-2504,chittendenvt@comcast.net,M-Th 9-4
Pittsford,Rutland,P.O. Box 10,Pittsford,VT,05763,426 Plains Road,,Pittsford,VT,05763,802-483-6500 Ext. 13,,,802-483-6612,clerktreasurer@pittsfordvermont.com,M-W 8-4:30; Th 8-6; F 8-3
Reading,Windsor,P.O. Box 72,Reading,VT,05062,799 VT Route 106,,Reading,VT,05062,802-484-7250,,,802-484-0015,readingvermont@comcast.net,M-W 8-4; Th 7:30-3
West Windsor,Windsor,P.O. Box 6,Brownsville,VT,05037,22 Brownsville-Hartland Road,,West Windsor,VT,05089,802-484-7212,,,802-484-3518,townclerk@westwindsorvt.org,M-F 9-12 and 1:30-4:30
Northfield,Washington,51 S Main Street,Northfield,VT,05663,51 S Main Street,,Northfield,VT,05663,802-485-5421,,,802-485-8426,kpedley@northfield.vt.us,M-F 8-4:30
Roxbury,Washington,P.O. Box 53,Roxbury,VT,05669,1664 Roxbury Road,,Roxbury,VT,05669,802-485-7840,,,802-485-9160,townrox@tds.net,T-F 9-12 & 1-4 & May-Sept. F hours are 9-12 &  The day before elections 9-12 &  1-5 
Shrewsbury,Rutland,9823 Cold River Road,Shrewsbury,VT,05738,9823 Cold River Road,,Shrewsbury,VT,05738,802-492-3511,,,802-492-3511,shrewsburyclerk@vermontel.net,M-Th 9-3
Warren,Washington,P.O. Box 337,Warren,VT,05674,42 Cemetery Road,,Warren,VT,05674,802-496-2709,,,802-496-2418,clerk@warrenvt.org,M-F 9-4:30
Waitsfield,Washington,4144 Main Street,Waitsfield,VT,05673,4144 Main Street,,Waitsfield,VT,05673,802-496-2218x3,,,802-496-9284,waitsfieldclerk@gmavt.net,M-F 8-4:30
Saint Albans City,Franklin,P.O. Box 867,St. Albans,VT,05478,100 North Main Street,,St. Albans,VT,05478,802-524-1500 ext. 264,,,802-524-1516,c.galloway@stalbansvt.com,M-F 7:30-4:30
Georgia,Franklin,47 Town Common Road North,St. Albans,VT,05478,47 Town Common Road North,,Georgia Center,VT,05478,802-524-3524,,,802-524-3543,townclerk@townofgeorgia.com,M-F 8-4
Saint Albans Town,Franklin,P.O. Box 37,St. Albans Bay,VT,05481,579 Lake Road,,St. Albans,VT,05478,802-524-2415,,,802-524-9609,a.bourdon@stalbanstown.com,M-F 8-4
Westmore,Orleans,54 Hinton Hill Road,Orleans,VT,05860,54 Hinton Hill Road,,Westmore,VT,05860,802-525-3007,,,802-525-1131,clerk@westmoreonline.org,M-Th 8:30-4
Glover,Orleans,51 Bean Hill,Glover,VT,05839,51 Bean Hill,,Glover,VT,05839,802-525-6227,,,802-525-4115,glovertc@comcast.net,M-Th 7-5
Barton,Orleans,34 Main Street,Barton,VT,05822,34 Main Street,,Barton,VT,05822,802-525-6222,,,802-525-8856,bartontown@comcast.net,M-Th 7:30-4; F 7:30-12
Stannard,Caledonia,P.O. Box 94,Greensboro Bend,VT,05842,615 Stannard Mountain Road,,Stannard,VT,05836,802-533-2577,,,802-533-2577,townofstannard@myfairpoint.net,W 8-12
Greensboro,Orleans,P.O. Box 119,Greensboro,VT,05841,82 Craftsbury Road,,Greensboro,VT,05841,802-533-2911,,,802-533-2911,townclerk@greensborovt.org,M T Th 9-4; W 9-6; F 9-12
Benson,Rutland,2760 Stage Road,Benson,VT,05731,2760 Stage Road,,Benson,VT,05731,802-537-2611,,,802-537-2612,bensonclerk@myottmail.com,"M T Th F 9-3, W 3-7"
Cabot,Washington,P.O. Box 36,Cabot,VT,05647,3084 Main Street,,Cabot,VT,05647,802-563-2279,,,802-563-2423,tcocabot@fairpoint.net,M-Th 9-5
Walden,Caledonia,12 VT Route 215,West Danville,VT,05873,12 VT Route 215,,West Danville,VT,05873,802-563-2220,,,802-563-3008,waldentc@pivot.net,M-W 9-4; Th 9-5 & 9-12 The day before elecections
Groton,Caledonia,1476 Scott Hwy,Groton,VT,05046,1476 Scott Hwy,,Groton,VT,05046,802-584-3276,,,802-584-3792,townclerk@grotonvt.com,M-Th 8:30-3 & by appt.
Ryegate,Caledonia,P.O. Box 332,Ryegate,VT,05042,18 S. Bayley-Hazen Road,,Ryegate,VT,05042,802-584-3880,,,802-584-3880,ryegateclerk@yahoo.com,M-W 1-5; F 9-1
Craftsbury,Orleans,P.O. Box 55,Craftsbury,VT,05826,85 South Craftsbury Road,,Craftsbury,VT,05826,802-586-2823,,,802-586-2323,craftsbury@gmail.com,T-F 8:30-4; M and Sat by appt.
Peacham,Caledonia,P.O. Box 244,Peacham,VT,05862,79 Church Street,,Peacham,VT,05862,802-592-3218,,,802-592-3218,townclerk@peacham.org,M 8:15-5: T-Th 8:15-12 
Sudbury,Rutland,36 Blacksmith Lane,Sudbury,VT,05733,13 Huff Pond Road.,,Sudbury,VT,05733,802-623-7296,,,802-623-7296,sudburytownclerk@gmail.com,M 9-4; W 7-9 p.m.; F 9-3
Whiting,Addison,29 South Main Street,Whiting,VT,05778,29 South Main Street,,Whiting,VT,05778,802-623-7813,,,802-623-7815,townofwhiting@shoreham.net,M 7:30-11 & 5-7; W 7:30-11
Chelsea,Orange,P.O. Box 266,Chelsea,VT,05038,296 VT Route 110,,Chelsea,VT,05038,802-685-4460,,,802-625-2002,town.clerk@chelseavt.us,M T Th 8-12 & 1-4; F 8-12 & The day before elections 8-12
Sheffield,Caledonia,P.O. Box 165,Sheffield,VT,05866,37 Dane Toad,,Sheffield,VT,05866,802-626-8862,,,802-626-0424,townclerk@sheffieldvt.org,M F 9-3; W 9-6
Lyndon,Caledonia,P.O Box 167,Lyndonville,VT,05851,119 Park Avenue,,Lyndonville,VT,05851,802-626-5785,,,802-626-1265,dawn@lyndonvt.org,M-F 7:30-4:30
Kirby,Caledonia,346 Town Hall Road,Lyndonville,VT,05851,346 Town Hall Road,,Kirby,VT,05851,802-626-9386,,,802-626-9386,townclerk.kirbyvermont@gmail.com,T Th 8-3
Barnet,Caledonia,P.O. Box 15,Barnet,VT,05821,1743 US Route 5 South,,Barnet,VT,05821,802-633-2256,,,802-633-4315,townclerk@barnetvt.org,M-F 9-12 and 1-4:30
Eden,Lamoille,71 Old Schoolhouse Road,Eden Mills,VT,05653,71 Old Schoolhouse Road,,Eden Mills,VT,05653,802-635-2528,,,802-635-1724,cveareden@myfairpoint.net,M-Th 8-4
Johnson,Lamoille,P.O. Box 383,Johnson,VT,05656,293 Lower Main West,,Johnson,VT,05656,802-635-2611,,,802-635-2393,raudibert@townofjohnson.com,M-F 7:30-4 
Cambridge,Lamoille,P.O. Box 127,Jeffersonville,VT,05464,85 Church Street ,,Jeffersonville,VT,05464,802-644-2251,,,802-644-8348,mark@cambridgevt.org,M W Th 8-4:30; T 8-6; F 8-1 & Closed the day before elections
Belvidere,Lamoille,3996 VT RT 109,Belvidere,VT,05442,3996 VT RT 109,,Belvidere,VT,05442,802-644-6621,,,802-644-8900,belvideretownclerk@gmail.com,T-Th 8:30-3:30
Norwich,Windsor,P.O. Box 376,Norwich,VT,05055,300 Main Street,,Norwich,VT,05055,802-649-1419  ext. 103,,,802-649-0123,clerk@norwich.vt.us,HRS:  M - F 8:30-4:30 & The day before elections 8:30-12 
Winooski,Chittenden,27 West Allen St,Winooski,VT,05404,27 West Allen Street,,Winooski,VT,05404,802-655-6419,,,802-655-6414,cbarrett@winooskivt.gov,M-F 7:30-4:30
Bridgewater,Windsor,7335 US Rte. 4,Bridgewater,VT,05034,7335 US Rte. 4,,Bridgewater,VT,05034,802-672-3334,,,802-672-5395,twnbridg@comcast.net,M-Th 8-4
Plymouth,Windsor,68 Town Office Road,Plymouth,VT,05056,68 Town Office Road,,Plymouth,VT,05056,802-672-3655,,,802-672-5466,clerk@plymouthvt.org,M-Th 8-4
Windsor,Windsor,29 Union Street,Windsor,VT,05089,29 Union Street,,Windsor,VT,05089,802-674-5610,,,802-674-1017,amcmullen@windsorvt.org,M-Th 9-4 & Closed the day before elections
Weathersfield,Windsor,P.O. Box 550,Ascutney,VT,05030,5259 Route 5,,Ascutney,VT,05030,802-674-9500,,,802-674-2117,townclerk@weathersfield.org,M-W 9-4; Th 9-5:30 & Closed the day before elections
Guildhall,Essex,P.O. Box 10,Guildhall,VT,05905,13 Courthouse Dr.,,Guildhall,VT,05905,802-676-3797,,,802-676-3518,townclerk@guildhallvt.org ,T 9-3; Th 12-6
Danville,Caledonia,P.O. Box 183,Danville,VT,05828,36 Route 2 W,,Danville,VT,05828,802-684-3352,,,802-684-9606,wsomers@danvillevermont.org,M-F 8-4
Stamford,Bennington,986 Main Road,Stamford,VT,05352,986 Main Road,,Stamford,VT,05352,802-694-1361,,,802-694-1636,stamfordvt@live.com,T W F 8-12; Th 12-4 and 6-8 p.m.
Concord,Essex,P.O. Box 317,Concord,VT,05824,374 Main Street,,Concord,VT,05824,802-695-2220,,,802-695-2552,townclerk@conclerk.com,M T Th F 8-4
Westminster,Windham,P.O. Box 147,Westminster,VT,05158,3651 US Route 5,,Westminster,VT,05158,802-722-4091,,,802-722-9816,clerk@westminstervt.org,M-F 8:30-4
Brighton,Essex,P.O. Box 377,Island Pond,VT,05846,49 Mill Street Ext.,,Island Pond,VT,05846,802-723-4405,,,802-723-4405,brightonclerk@comcast.net,M-F 8-3:30
Randolph,Orange,Drawer B,Randolph,VT,05060,7 Summer Street,,Randolph,VT,05060,"802-728-5433, ext. 11",,,802-728-5818,joyce@randolphvt.org,M-F 8-4:30
Braintree,Orange,932 VT Route 12A,Braintree,VT,05060,932 VT Route 12A,,Braintree,VT,05060,802-728-9787 X3,,,802-728-9742,braintreetownclerk@gmail.com,M T W 9-4
Lowell,Orleans,2170 VT Route. 100,Lowell,VT,05847,2170 VT. Route. 100,,Lowell,VT,05847,802-744-6559,,,802-744-2357,cpion@lowelltown.org,M-Th 9-2:30
Westfield,Orleans,38 School St,Westfield,VT,05874,38 School St,,Westfield,VT,05874,802-744-2484,,,802-744-6224,townofwestfield@comcast.net,M-Th 8-4
Pittsfield,Rutland,P.O. Box 556,Pittsfield,VT,05762-0556,40 Village Green,,Pittsfield,VT,05762-0556,802-746-8170,,,802-746-8170,townofpittsfieldvt@gmail.com,T-Th 9-5
Stockbridge,Windsor,P.O. Box 39,Stockbridge,VT,05772,1722 VT Route 100,,Stockbridge,VT,05772,802-746-8400,,,802-746-8400,townofstockbridgevt@gmail.com,T-Th 8-4:30; F 8-12
Saint Johnsbury,Caledonia,"51 Depot Square, Suite. 101",St Johnsbury,VT,05819,"51 Depot Square, Suite. 101",,St Johnsbury,VT,05819,802-748-4331 x1,,,802-748-1267,townclerk@stjvt.com,M-F 8-4:30
Waterford,Caledonia,P.O. Box 56,Lower Waterford,VT,05848,532 Maple Street,,Lower Waterford,VT,05848,802-748-2122,,,802-748-8196,townofwaterford@gmail.com,M T Th F 8:30-3:30
Irasburg,Orleans,P.O. Box 51,Irasburg,VT,05845,161 RT 58 East,,Irasburg,VT,05845,802-754-2242,,,802-754-2242,irasburgtc@comcast.net,M-W 9-3; Th 9-6
Coventry,Orleans,P.O. Box 8,Coventry,VT,05825,168 Main Street,,Coventry,VT,05825,802-754-2288,,,802-754-6274,clerk@coventryvt.org,M W F 8-1 & Closed the day before elections
Brownington,Orleans,622 Schoolhouse Road,Brownington,VT,05860,622 Schoolhouse Road,,Brownington,VT,05860,802-754-8401,,,802-754-8401,browningtontc@comcast.net,M-Th 8-3:30
Bridport,Addison,P.O. Box 27,Bridport,VT,05734,82 Crown Point Road,,Bridport,VT,05734,802-758-2483,,,802-758-2483,bridporttown@gmavt.net,M-W 9-12 & 1-4; Th F 9-12 &  The day before elections 9-12
Addison,Addison,65 VT Route 17 W.,Addison,VT,05491,65 VT Route 17W,,Addison,VT,05491,802-759-2020,,,802-759-2233,addisontown@gmavt.net,M T Th 8:30-12 and 1-4:30; W F 8:30-12
Sharon,Windsor,P.O. Box 250,Sharon,VT,05065,69 VT Route 132,,Sharon,VT,05065,802-763-8268x1 ,,,802-763-7392,clerk@sharonvt.net,M-Th 7-4
Royalton,Windsor,P.O. Box 680,S Royalton,VT,05068,2460 VT. Route 14,,S Royalton,VT,05068,802-763-7207,,,802-763-8064,townclerk@royaltonvt.com,M-Th 8-12:00 and 12:30-3p.m.
Williston,Chittenden,7900 Williston Road,Williston,VT,05495,7900 Williston Road,,Williston,VT,05495,802-878-5121,,,802-764-1140,smason@willistonvt.org,M-F 8-4:30 & 8-12 The day befor elections
Strafford,Orange,P.O. Box 27,Strafford,VT,05072,227 Justin Morrill Highway,,Strafford,VT,05072,802-765-4411,,,802-765-9621,townclerk@straffordvt.org,M-Th 7:30-4:30
Derby,Orleans,124 Main Street,Derby,VT,05829,124 Main St,,Derby,VT,05829,802-766-4906,,,802-766-2027,derbytownclerk@derbyvt.org,M-Th 7-5
Rochester,Windsor,67 School St,Rochester,VT,05767,67 School St,,Rochester,VT,05767,802-767-3631,,,802-767-6028,rochestertown@comcast.net,T-F 8-4
Rutland City,Rutland,P.O. Box 969,Rutland,VT,05701,1 Strongs Avenue,,Rutland,VT,05701,802-774-7827,,,802-773-1846,henryh@rutlandcity.org,M-F 8:30-5
Rutland Town,Rutland,181 Business Route 4,Center Rutland,VT,05736,181 Business Route 4,,Center Rutland,VT,05736,802-773-2528 ext.3201  ,,,802-773-7295,kclark@rutlandtown.com,M W Th 8-4:30; T 8-6; F 8-2
Clarendon,Rutland,P.O. Box 30,Clarendon,VT,05759,279 Middle Road,,Clarendon,VT,05759,802-775-4274,,,802-775-4274,clarendonclerk@comcast.net,M-Th 10-4
Thetford,Orange,P.O. Box 126,Thetford Ctr,VT,05075,3910 VT Route 113,,Thetford Ctr,VT,05075,802-785-2922,,,802-785-2031,tborst@thetfordvt.gov,M 5-7 p.m.; T-Th 8-4 & Closed the day before elections
Alburgh,Grand Isle,1 North Main Street,Alburgh,VT,05440,1 North Main Street,,Alburgh,VT,05440,802-796-3468,,,802-796-3939,townofalburgh@fairpoint.net,M-Th 9-5; F 9-12
Norton,Essex,P.O. Box 33,Norton,VT,05907,12 VT Route 114E,,Norton,VT,05907,802-822-9935,,,802-822-9965,townofnorton@gmail.com,T 10-4; Th 10-12; F 1-5 
Pownal,Bennington,P.O. Box 411,Pownal,VT,05261,467 Center Street,,Pownal,VT,05261,802-823-7757,,,802-823-0116,town.clerk@townofpownal.org,M 10-2; T 10-4; W 9-5 TH F 9-2
Weston,Windsor,P.O. Box 98,Weston,VT,05161,12 Lawrence Hill Road,,Weston,VT,05161,802-824-6645,,,802-824-4121,clerk@westonvt.org,M-F 8-1  & Closed the Monday before elections
Bakersfield,Franklin,P.O. Box 203,Bakersfield,VT,05441,40 East Bakersfield Road,,Bakersfield,VT,05441,802-827-4495,,,802-827-3106,townclerk_bakersfield@comcast.net,M-Th 8-12  
Fairfield,Franklin,P.O. Box 5,Fairfield,VT,05455,25 North Road,,Fairfield,VT,05455,802-827-3261,,,802-827-3653,linda@fairfieldvermont.us,M T Th F 8-3; W 10:30-5:30
Landgrove,Bennington,88 Landgrove Road,Landgrove,VT,05148,88 Landgrove Road,,Landgrove,VT,05148,802-824-3716,,,802-828-3716,clerk@landgrove.vermont.gov,Th 9-1
Grafton,Windham,P.O. Box 180,Grafton,VT,05146,117 Main Street,,Grafton,VT,05146,802-843-2419,,,802-843-6100,krecord@graftonvt.org,M T Th F 9-12 and 1-4  
South Burlington,Chittenden,575 Dorset St,S Burlington,VT,05403,575 Dorset St,,S Burlington,VT,05403,802-846-4105,,,802-846-4151,dkinville@sburl.com,M-F 8-4:30 & The day before elections 8-12
Richford,Franklin,94 Main Street,Richford,VT,05476,94 Main Street,,Richford,VT,05476,802-848-7751,,,802-848-7752,townclerk@richfordvt.org,M-Th 8-4:30; F 8-12
Fletcher,Franklin,33 Shaw Road.,Cambridge,VT,05444,33 Shaw Road,,Fletcher,VT,05444,802-849-6616,,,802-849-2500,town@fletchervt.net,M-Th 8-3:30; M 6-8pm
Fairfax,Franklin,12 Buck Hollow Road.,Fairfax,VT,05454,12 Buck Hollow Road.,,Fairfax,VT,05454,802-849-6111,,,802-849-6276,clerk@fairfax-vt.gov,M-F 9-4 & Closed the day before elections
Burlington,Chittenden,149 Church Street,Burlington,VT,05401,149 Church Street,,Burlington,VT,05401,802-865-7000,,,802-865-7014,burlingtontownclerk@burlingtonvt.gov,M-F 8-4:30; The Day Before Any Election 8-1
Newbury,Orange,P.O. Box 126,Newbury,VT,05051,4982 Main St S,,Newbury,VT,05051,802-866-5521,,,802-866-5301,clerk@newburyvt.org,M W Th F 8:30-2:30; T 8:30-6 & Closed the Monday before elections
Highgate,Franklin,P.O. Box 189,Highgate,VT,05459,2996 VT Route 78,,Highgate,VT,05459,802-868-5002,,,802-868-3064,wdusablon@highgatevt.org,M-F 8:30-12 and 1:00-4:30 & Closed the day before elections
Swanton,Franklin,P.O. Box 711,Swanton,VT,05488,1 Academy Street,,Swanton,VT,05488,802-868-4421,,,802-868-4957,townclerk@swantonvermont.org,M-F 7-5
Athens,Windham,56 Brookline Road,Athens,VT,05143,25 Brookline Road,,Athens,VT,05143,802-869-3370,,,802-869-3370,townofathens@hotmail.com,M 9-1 
Windham,Windham,5976 Windham Hill Road,Windham,VT,05359,5976 Windham Hill Road,,Windham,VT,05359,802-874-4211,,,802-874-4144,windham.town@gmail.com,M 12-8; T 6-10am; W 10-2 & 8-12 the 4th Sat of each month 
Jamaica,Windham,P.O. Box 173,Jamaica,VT,05343,28 Town Office Road,,Jamaica,VT,05343,802-874-4681,,,802-874-4558,jamaicatownclerk@svcable.net,M-Th 8:30-4
Chester,Windsor,P.O. Box 370,Chester,VT,05143,556 Elm Street,,Chester,VT,05143,802-875-2173,,,802-875-2237,deborah.aldrich@chestervt.gov,M-F 8-4
Vergennes,Addison,P.O. Box 35,Vergennes,VT,05491,120 Main Street,,Vergennes,VT,05491,802-877-2841,,,802-877-1160,cityclerk@vergennes.org,M-F 8-4:30
Waltham,Addison,P.O. Box 175,Vergennes,VT,05491,2053 Maple Street,,Waltham,VT,05491,802-877-3641,,,802-877-3641,waltham@myfairpoint.net,T F 9-3
Ferrisburgh,Addison,3279 Route 7,Ferrisburgh,VT,05456,3279 Route 7,,Ferrisburgh,VT,05456,802-877-3429,,,802-877-6757,townclerk@ferrisburghvt.org,M-F 8-12 & 1-4
Essex,Chittenden,81 Main Street,Essex Junction,VT,05452,81 Main Street,,Essex Junction,VT,05452,802-879-0413,,,802-878-1353,smcnamarahill@essex.org,M-F 7:30-4:30 & Closed the day before elections
Westford,Chittenden,1713 VT Route 128,Westford,VT,05494,1713 VT Route 128,,Westford,VT,05494,802-878-4587,,,802-879-6503,townclerk@westfordvt.us,M-F 8:30-4:30
Washington,Orange,2895 VT Route 110,Washington,VT,05675,2895 VT Route 110,,Washington,VT,05675,802-883-2218,,,802-883-2218,washingtontownclerk@gmail.com,M T 8-4
Springfield,Windsor,96 Main Street,Springfield,VT,05156,96 Main Street,,Springfield,VT,05156,802-885-2104,,,802-885-1617,tosclerk@vermontel.net,M-F 8-4:30
Wolcott,Lamoille,P.O. Box 100,Wolcott,VT,05680,28 Railroad Street,,Wolcott,VT,05680,802-888-2746,,,802-888-2669,tc@wolcottvt.org,M-F 8-4pm
Morristown,Lamoille,P. O. Box 748,Morrisville,VT,05661,43 Portland St,,Morrisville,VT,05661,802-888-6370,,,802-888-6375,shaskins@morristownvt.org,M-Th 8-4; F 8-1
Hyde Park,Lamoille,P.O. Box 98,Hyde Park,VT,05655-0098,344 VT Route 15 W,,Hyde Park,VT,05655,802-888-2300,,,802-888-6878,kim@hydeparkvt.com,M-F 8-4; Closed the Monday before any election
Milton,Chittenden,P.O. Box 18,Milton,VT,05468,43 Bombardier Road,,Milton,VT,05468,802-893-4111,,,802-893-1005,sprince@miltonvt.gov,M-F 8-5
Charleston,Orleans,5063 VT Route 105,W Charleston,VT,05872,5063 VT Route 105,,W Charleston,VT,05872,802-895-2814,,,802-895-2714,townofcharlestonvt@comcast.net,M T Th 8-3
Morgan,Orleans,P.O. Box 45,Morgan,VT,05853,41 Meade Hill Road,,Morgan,VT,05853,802-895-2927,,,802-895-4204,tmorganvt@comcast.net,M 7:30-3:30; T W 7:30-3; Th 7:30-2:30
Holland,Orleans,120 School Road,Derby Line,VT,05830,120 School Road,,Holland,VT,05830,802-895-4440,,,802-895-4440,holland1805@hotmail.com,M T Th 8-4:30
Wardsboro,Windham,P.O. Box 48,Wardsboro,VT,05355,71 Main Street,,Wardsboro,VT,05355,802-896-6055,,,802-896-1000,wardsborotownoffice@myfairpoint.net,M-Th 9-12 and 1-4:30
Stratton,Windham,9 West Jamaica Road.,Stratton,VT,05360,9 West Jamaica Road.,,Stratton,VT,05360,802-896-6184,,,802-896-6630,townclerk@townofstrattonvt.com,M-Th 9-3
Shoreham,Addison,297 Main St,Shoreham,VT,05770,297 Main St,,Shoreham,VT,05770,802-897-5841,,,802-897-2545,shorehamtown@shoreham.net,M -Th 9-12 and 1-4
Underihill,Chittenden,P.O. Box 120,Underhill ,VT,05489,12 Pleasant Valley Road,,Underhill,VT,05489,802-899-4434 x1,,,802-899-2137,smorin@underhillvt.gov,M-F 8-4 & The day before elections 8-2 
Jericho,Chittenden,P.O. Box 67,Jericho,VT,05465,67 Vermont Route 15,,Jericho,VT,05465,802-899-4936 x1,,,802-899-5549,jerichovermont@yahoo.com,M-Th 8-4; F 8-12
Isle La Motte,Grand Isle,P.O. Box 250,Isle La Motte,VT,05463,2272 Main Street,,Isle La Motte,VT,05463,802-928-3434,,,802-928-3002,islemott@fairpoint.net,T Th 8:30-3:30; W F 1-5
Enosburgh,Franklin,P.O. BOX 465,Enosburg Falls,VT,05450,239 Main Street,,Enosburg Falls,VT,05450,802-933-4421,,,802-933-4832,townclerk@enosburghvt.org,M-F 8-3:30
Sheldon,Franklin,1640 Main St,Sheldon,VT,05483-9714,1640 Main Street,,Sheldon,VT,05483-9714,802-933-2524,,,802-933-4951,tc@sheldonvt.com,M T Th F 8-3; W 8-5:30
Berkshire,Franklin,4454 Watertower Road,Enosburg  Falls,VT,05450,4454 Watertower Road,,Berkshire,VT,05450,802-933-2335,,,802-933-5913,townclerk@berkshirevt.com,M-Th 8-12 & 1-4
Bloomfield,Essex,P.O. Box 336,N Stratford,NH,03590,27 Schoolhouse Road,,Bloomfield,VT,05905,802-962-5191,,,802-962-5191,townofbloomfieldvt@gmail.com,T Th 9-3
Brunswick,Essex,994 VT Route 102,Brunswick,VT,05905,994 VT Route 102,,Brunswick,VT,05905,802-962-5514,,,802-962-5522,townofbrunswick@gmail.com,Th 4-6 and by appt.
Shelburne,Chittenden,P.O. Box 88,Shelburne,VT,05482,5420 Shelburne Road,,Shelburne,VT,05482,802-985-5116,,,802-985-9550,dvachon@shelburnevt.org,M-F 8:30-5 & The day before elections 8:30-2
Jay,Orleans,1036 VT Route 242,Jay,VT,05859,1036 VT Route 242,,Jay,VT,05859,802-988-2996,,,802-988-2995,townofjay@comcast.net,M T Th 7-4; W 7-12
Troy,Orleans,142 Main Street,North Troy,VT,05859,142 Main Street,,North Troy,VT,05859,802-988-2663,,,802-988-4692,townoftroy@comcast.net,M-Th 9-5
Wells,Rutland,P.O. Box 585,Wells,VT,05774,1064 VT Route 30,,Wells,VT,05774,802.645.0486,,,802.645.0464,wellstownclerk@comcast.net,M-Th 8-3 & Closed the day before elections
Albany,Orleans,P.O. Box 284,Albany,VT,05820,827 Main Street,,Albany,VT,05820,802-755-6100,,,,albanytct@gmail.com,T Th 9-4; W 9-7 & 9-12 The day before elections
Andover,Windsor,953 Weston-Andover Road,Andover,VT,05143,953 Weston-Andover Road,,Andover,VT,05143,802-875-2765,,,,clerk@vermontel.net,M-Th 8-3; F 8-12
Barnard,Windsor,P.O. Box 274,Barnard,VT,05031-0274,115 North Road,,Barnard,VT,05031-0274,802-234-9211,,,,barnardto@gmail.com,M-W 8-3:30
Calais,Washington,3120 Pekin Brook Road,East Calais,VT,05650,3120 Pekin Brook Road,,E. Calais,VT,05650,802-456-8720,,,,calais.townclerk@gmail.com,M-Th 8-4
East Haven,Essex,P.O. Box 10,East Haven,VT,05837,64 Community Building Road,,East Haven,VT,05837,802-467-3772,,,,tclerk1790@gmail.com,T 1-6; Th 8-1
Elmore,Lamoille,P.O. BOX 123,Lake Elmore,VT,05657,1175 VT Route 12,,Elmore,VT,05657,802-888-2637,,,,sdraper@elmorevt.org,T-Th 9-3
Fayston,Washington,866 N Fayston Road,Fayston,VT,05660,866 N Fayston Road,,Fayston,VT,05660,802-496-2454,,,,faystontc@madriver.com,M-Th 9-3:30; F 9-3 & Closed the day before elections
Granville,Addison,P.O.Box 88,Granville,VT,05747,4157 VT Route 100,,Granville,VT,05747,802-767-4403,,,,granvilletown@gmavt.net,M-Th 9-4  
Hancock,Addison,P.O. Box 100,Hancock,VT,05748,1027 VT Route 100,,Hancock,VT,05748,802-767-3660,,,,townclerk@hancockvt.org,M 2-5; T 9-2; Th 9-12
Huntington,Chittenden,4930 Main Road,Huntington,VT,05462,4930 Main Road,,Huntington,VT,05462,802-434-2032,,,,huntingtonclerk@gmavt.net,M 8-7; T-Th 8-3 & The day before elections 8-12
Londonderry,Windham,100 Old School Street,S. Londonderry,VT,05155,100 Old School Street,,S. Londonderry,VT,05155,802-824-3356,,,,townclerk@londonderryvt.org,M T Th F 8:30-4; W 10-5 
Mendon,Rutland,2282 US Route 4,Mendon,VT,05701,34 US Route 4,,Mendon,VT,05701,802-775-1662,,,,mendonclerk@comcast.net,M-Th 8-5
Orwell,Addison,P.O. Box 32,Orwell,VT,05760,436 Main Street,,Orwell,VT,05760,802-948-2032,,,,tckorwel@sover.net,M T Th 9:30-12 and 1-3:30; F 9:30-12 and 1-6
Peru,Bennington,P.O. Box 127,Peru,VT,05152,402 Main St,,Peru,VT,05152,802-824-3065,,,,peruclerk@gmail.com,T Th 8:30-4
Sunderland,Bennington,104 Mountain View Road.,Sunderland,VT,05250,104 Mountain View Road.,,Sunderland,VT,05250,802-375-6106,,,,sunderlandvt@comcast.net,M- Th 8-2
Tunbridge,Orange,P.O. Box 6,Tunbridge,VT,05077,271 VT RT 110,,Tunbridge,VT,05077,802-889-5521,,,,tctunbridge@live.com,M 12-6; T-F 8-2 & Closed the day before elections
Victory,Essex,P.O. Box 609,North Concord,VT,05858,102 Radar Road,,Victory,VT,05858,802.328.2400,,,,townofvictory@myfairpoint.net,M T Th 8:30-12& 12:45-4; W 1-6
Waterville,Lamoille,P.O. Box 31,Waterville,VT,05492,850 VT Route 109,,Waterville,VT,05492,802-644-8865,,,,townofwaterville@myfairpoint.net,M T Th 9-1:30
Weybridge,Addison,1727 Quaker Village Road,Weybridge,VT,05752,1727 Quaker Village Road,,Weybridge,VT,05753,802-545-2450,,,,clerk@townofweybridge.org,M F 12:30-4:30; T Th 8 :30-2; W 2-7
Wheelock,Caledonia,P.O. Box 1328,Lyndonville,VT,05851,1192 Route 122,,Wheelock,VT,05851,802 626-9094,,,,wheelocktown@gmail.com,T 12-5:30; W Th 9-2:30
Wilmington,Windham,P.O. Box 217,Wilmington,VT,05363,2 East Main Street,,Wilmington,VT,05363,802-464-5836,,,,tlounsbury@wilmingtonvt.us,M-F 9-12 & 1-5 & 9-12 The day before elections